{"type":"FeatureCollection","name":"centros_discapacidad_rd_osm","attribution":"© OpenStreetMap contributors, ODbL 1.0","generated_at":"2026-09-18T16:46:15.991053Z","features":[{"type":"Feature","geometry":{"type":"Point","coordinates":[-69.9061864,18.4802159]},"properties":{"id":"DISC-OSM-WAY-229580940","nombre":"Asociacion Dominicana de Rehabilitacion","categoria":"CAID / centros de atención a personas con discapacidad","direccion":"","ciudad":"","provincia":"","telefono":"","website":"","osm_type":"way","osm_id":229580940,"osm_url":"https://www.openstreetmap.org/way/229580940","fuente":"OpenStreetMap","validada":false,"caid_candidato":false,"validacion_institucional":"pendiente"}},{"type":"Feature","geometry":{"type":"Point","coordinates":[-70.6845749,19.425792]},"properties":{"id":"DISC-OSM-NODE-3976656260","nombre":"CAID","categoria":"CAID / centros de atención a personas con discapacidad","direccion":"","ciudad":"","provincia":"","telefono":"","website":"","osm_type":"node","osm_id":3976656260,"osm_url":"https://www.openstreetmap.org/node/3976656260","fuente":"OpenStreetMap","validada":false,"caid_candidato":true,"validacion_institucional":"pendiente"}},{"type":"Feature","geometry":{"type":"Point","coordinates":[-69.7687014,18.5243259]},"properties":{"id":"DISC-OSM-WAY-1467864423","nombre":"Cancha Teniente Coronel Paracaidista Ángel Moisés Ogando Hernández","categoria":"CAID / centros de atención a personas con discapacidad","direccion":"","ciudad":"","provincia":"","telefono":"","website":"","osm_type":"way","osm_id":1467864423,"osm_url":"https://www.openstreetmap.org/way/1467864423","fuente":"OpenStreetMap","validada":false,"caid_candidato":false,"validacion_institucional":"pendiente"}},{"type":"Feature","geometry":{"type":"Point","coordinates":[-69.9790211,18.4415302]},"properties":{"id":"DISC-OSM-WAY-463584501","nombre":"Centro de Atención Integral Para la Discapacidad","categoria":"CAID / centros de atención a personas con discapacidad","direccion":"Avenida Gregorio Luperón","ciudad":"Santo Domingo","provincia":"","telefono":"","website":"","osm_type":"way","osm_id":463584501,"osm_url":"https://www.openstreetmap.org/way/463584501","fuente":"OpenStreetMap","validada":false,"caid_candidato":true,"validacion_institucional":"pendiente"}},{"type":"Feature","geometry":{"type":"Point","coordinates":[-70.3402299,18.2803826]},"properties":{"id":"DISC-OSM-WAY-244113941","nombre":"Centro de Corrección y Rehabilitación Baní - Mujeres","categoria":"CAID / centros de atención a personas con discapacidad","direccion":"Baní - Azua","ciudad":"Baní","provincia":"","telefono":"","website":"","osm_type":"way","osm_id":244113941,"osm_url":"https://www.openstreetmap.org/way/244113941","fuente":"OpenStreetMap","validada":false,"caid_candidato":false,"validacion_institucional":"pendiente"}},{"type":"Feature","geometry":{"type":"Point","coordinates":[-68.6958988,18.6284383]},"properties":{"id":"DISC-OSM-WAY-221552475","nombre":"Centro de Corrección y Rehabilitación de Higüey","categoria":"CAID / centros de atención a personas con discapacidad","direccion":"","ciudad":"","provincia":"","telefono":"","website":"","osm_type":"way","osm_id":221552475,"osm_url":"https://www.openstreetmap.org/way/221552475","fuente":"OpenStreetMap","validada":false,"caid_candidato":false,"validacion_institucional":"pendiente"}},{"type":"Feature","geometry":{"type":"Point","coordinates":[-69.3094483,18.4698154]},"properties":{"id":"DISC-OSM-WAY-157771621","nombre":"Centro de Corrección y Rehabilitación de San Pedro de Macorís (CCR)","categoria":"CAID / centros de atención a personas con discapacidad","direccion":"","ciudad":"","provincia":"","telefono":"","website":"","osm_type":"way","osm_id":157771621,"osm_url":"https://www.openstreetmap.org/way/157771621","fuente":"OpenStreetMap","validada":false,"caid_candidato":false,"validacion_institucional":"pendiente"}},{"type":"Feature","geometry":{"type":"Point","coordinates":[-70.533293,19.3562349]},"properties":{"id":"DISC-OSM-WAY-1083246245","nombre":"Centro de Corrección y Rehabilitación La Isleta Moca","categoria":"CAID / centros de atención a personas con discapacidad","direccion":"","ciudad":"","provincia":"","telefono":"","website":"","osm_type":"way","osm_id":1083246245,"osm_url":"https://www.openstreetmap.org/way/1083246245","fuente":"OpenStreetMap","validada":false,"caid_candidato":false,"validacion_institucional":"pendiente"}},{"type":"Feature","geometry":{"type":"Point","coordinates":[-69.6351678,18.6310727]},"properties":{"id":"DISC-OSM-WAY-1023112074","nombre":"Centro de Corrección y Rehabilitación Las Parras","categoria":"CAID / centros de atención a personas con discapacidad","direccion":"","ciudad":"Las Parras","provincia":"Guerra","telefono":"","website":"","osm_type":"way","osm_id":1023112074,"osm_url":"https://www.openstreetmap.org/way/1023112074","fuente":"OpenStreetMap","validada":false,"caid_candidato":false,"validacion_institucional":"pendiente"}},{"type":"Feature","geometry":{"type":"Point","coordinates":[-70.7251868,19.4642817]},"properties":{"id":"DISC-OSM-WAY-585746273","nombre":"Centro de Corrección y Rehabilitación Rafey","categoria":"CAID / centros de atención a personas con discapacidad","direccion":"","ciudad":"","provincia":"","telefono":"","website":"","osm_type":"way","osm_id":585746273,"osm_url":"https://www.openstreetmap.org/way/585746273","fuente":"OpenStreetMap","validada":false,"caid_candidato":false,"validacion_institucional":"pendiente"}},{"type":"Feature","geometry":{"type":"Point","coordinates":[-70.2753321,19.3098377]},"properties":{"id":"DISC-OSM-WAY-202622095","nombre":"Centro de Corrección y Rehabilitación Vista al Valle","categoria":"CAID / centros de atención a personas con discapacidad","direccion":"Calle 1ª","ciudad":"San Francisco de Macorís","provincia":"","telefono":"","website":"","osm_type":"way","osm_id":202622095,"osm_url":"https://www.openstreetmap.org/way/202622095","fuente":"OpenStreetMap","validada":false,"caid_candidato":false,"validacion_institucional":"pendiente"}},{"type":"Feature","geometry":{"type":"Point","coordinates":[-70.2556454,19.3046642]},"properties":{"id":"DISC-OSM-NODE-3101379758","nombre":"Centro De Rehabilitacion Fisica","categoria":"CAID / centros de atención a personas con discapacidad","direccion":"","ciudad":"","provincia":"","telefono":"","website":"","osm_type":"node","osm_id":3101379758,"osm_url":"https://www.openstreetmap.org/node/3101379758","fuente":"OpenStreetMap","validada":false,"caid_candidato":false,"validacion_institucional":"pendiente"}},{"type":"Feature","geometry":{"type":"Point","coordinates":[-70.4122168,18.9367154]},"properties":{"id":"DISC-OSM-NODE-6328280821","nombre":"Centro de Rehabilitación","categoria":"CAID / centros de atención a personas con discapacidad","direccion":"","ciudad":"","provincia":"","telefono":"","website":"","osm_type":"node","osm_id":6328280821,"osm_url":"https://www.openstreetmap.org/node/6328280821","fuente":"OpenStreetMap","validada":false,"caid_candidato":false,"validacion_institucional":"pendiente"}},{"type":"Feature","geometry":{"type":"Point","coordinates":[-70.4122636,18.9367414]},"properties":{"id":"DISC-OSM-WAY-675748822","nombre":"Centro de Rehabilitación","categoria":"CAID / centros de atención a personas con discapacidad","direccion":"","ciudad":"","provincia":"","telefono":"","website":"","osm_type":"way","osm_id":675748822,"osm_url":"https://www.openstreetmap.org/way/675748822","fuente":"OpenStreetMap","validada":false,"caid_candidato":false,"validacion_institucional":"pendiente"}},{"type":"Feature","geometry":{"type":"Point","coordinates":[-70.5466349,19.3711571]},"properties":{"id":"DISC-OSM-NODE-2353543630","nombre":"Centro de Rehabilitación y Corrección Hogares Crea","categoria":"CAID / centros de atención a personas con discapacidad","direccion":"","ciudad":"","provincia":"","telefono":"","website":"","osm_type":"node","osm_id":2353543630,"osm_url":"https://www.openstreetmap.org/node/2353543630","fuente":"OpenStreetMap","validada":false,"caid_candidato":false,"validacion_institucional":"pendiente"}},{"type":"Feature","geometry":{"type":"Point","coordinates":[-70.6848561,19.4255913]},"properties":{"id":"DISC-OSM-WAY-402904037","nombre":"Conjunto CAID-CAIPI-PARROQUIA","categoria":"CAID / centros de atención a personas con discapacidad","direccion":"","ciudad":"","provincia":"","telefono":"","website":"","osm_type":"way","osm_id":402904037,"osm_url":"https://www.openstreetmap.org/way/402904037","fuente":"OpenStreetMap","validada":false,"caid_candidato":true,"validacion_institucional":"pendiente"}},{"type":"Feature","geometry":{"type":"Point","coordinates":[-69.8531922,18.578818]},"properties":{"id":"DISC-OSM-NODE-11810538036","nombre":"Escuela Laboral Para Estudiantes Con Discapacidad La Virgen","categoria":"CAID / centros de atención a personas con discapacidad","direccion":"C/ Hector J. Diaz, La Virgen","ciudad":"Santo Domingo Norte","provincia":"","telefono":"","website":"","osm_type":"node","osm_id":11810538036,"osm_url":"https://www.openstreetmap.org/node/11810538036","fuente":"OpenStreetMap","validada":false,"caid_candidato":false,"validacion_institucional":"pendiente"}},{"type":"Feature","geometry":{"type":"Point","coordinates":[-70.7017663,19.4679986]},"properties":{"id":"DISC-OSM-WAY-409849896","nombre":"Iglesia Cristiana Levantando Al Caido","categoria":"CAID / centros de atención a personas con discapacidad","direccion":"Calle C-19 56","ciudad":"Santiago","provincia":"","telefono":"","website":"","osm_type":"way","osm_id":409849896,"osm_url":"https://www.openstreetmap.org/way/409849896","fuente":"OpenStreetMap","validada":false,"caid_candidato":false,"validacion_institucional":"pendiente"}},{"type":"Feature","geometry":{"type":"Point","coordinates":[-69.8921317,18.4689278]},"properties":{"id":"DISC-OSM-NODE-13016399601","nombre":"Mural Revolución de abril - Caida de Trujillo","categoria":"CAID / centros de atención a personas con discapacidad","direccion":"","ciudad":"","provincia":"","telefono":"","website":"","osm_type":"node","osm_id":13016399601,"osm_url":"https://www.openstreetmap.org/node/13016399601","fuente":"OpenStreetMap","validada":false,"caid_candidato":false,"validacion_institucional":"pendiente"}},{"type":"Feature","geometry":{"type":"Point","coordinates":[-70.699324,19.4551367]},"properties":{"id":"DISC-OSM-WAY-408443609","nombre":"Patronato Cibao de Rehabilitación","categoria":"CAID / centros de atención a personas con discapacidad","direccion":"Calle Cuba","ciudad":"Santiago de los Caballeros","provincia":"","telefono":"","website":"","osm_type":"way","osm_id":408443609,"osm_url":"https://www.openstreetmap.org/way/408443609","fuente":"OpenStreetMap","validada":false,"caid_candidato":false,"validacion_institucional":"pendiente"}},{"type":"Feature","geometry":{"type":"Point","coordinates":[-70.7159386,19.4804388]},"properties":{"id":"DISC-OSM-NODE-4419185090","nombre":"Patronato Cibao de Rehabilitación Inc.","categoria":"CAID / centros de atención a personas con discapacidad","direccion":"","ciudad":"","provincia":"","telefono":"","website":"","osm_type":"node","osm_id":4419185090,"osm_url":"https://www.openstreetmap.org/node/4419185090","fuente":"OpenStreetMap","validada":false,"caid_candidato":false,"validacion_institucional":"pendiente"}},{"type":"Feature","geometry":{"type":"Point","coordinates":[-69.8926241,18.4706447]},"properties":{"id":"DISC-OSM-NODE-4715776846","nombre":"Plaza de los Caidos en la Guerra de Abril 1965","categoria":"CAID / centros de atención a personas con discapacidad","direccion":"","ciudad":"","provincia":"","telefono":"","website":"","osm_type":"node","osm_id":4715776846,"osm_url":"https://www.openstreetmap.org/node/4715776846","fuente":"OpenStreetMap","validada":false,"caid_candidato":false,"validacion_institucional":"pendiente"}},{"type":"Feature","geometry":{"type":"Point","coordinates":[-69.9847908,18.4477901]},"properties":{"id":"DISC-OSM-NODE-5744375344","nombre":"Snan Linea De Belleza Anticaida y crecimiento rapido 100% natural","categoria":"CAID / centros de atención a personas con discapacidad","direccion":"","ciudad":"","provincia":"","telefono":"","website":"","osm_type":"node","osm_id":5744375344,"osm_url":"https://www.openstreetmap.org/node/5744375344","fuente":"OpenStreetMap","validada":false,"caid_candidato":false,"validacion_institucional":"pendiente"}},{"type":"Feature","geometry":{"type":"Point","coordinates":[-70.5284462,19.2220323]},"properties":{"id":"DISC-OSM-WAY-413956983","nombre":"Unidad de Medicina Fisica y Rehabilitacion","categoria":"CAID / centros de atención a personas con discapacidad","direccion":"Avenida Garcia Godoy","ciudad":"La Vega","provincia":"","telefono":"","website":"","osm_type":"way","osm_id":413956983,"osm_url":"https://www.openstreetmap.org/way/413956983","fuente":"OpenStreetMap","validada":false,"caid_candidato":false,"validacion_institucional":"pendiente"}}]}