{"type":"FeatureCollection","name":"cuarteles_recintos_militares_rd_osm","attribution":"© OpenStreetMap contributors, ODbL 1.0","generated_at":"2026-09-18T16:46:15.991053Z","features":[{"type":"Feature","geometry":{"type":"Point","coordinates":[-70.5330202,19.3895491]},"properties":{"id":"MIL-OSM-NODE-2352551506","nombre":"Academia de las Fuerzas Armadas","categoria":"Cuarteles / recintos militares","direccion":"","ciudad":"","provincia":"","telefono":"","website":"","osm_type":"node","osm_id":2352551506,"osm_url":"https://www.openstreetmap.org/node/2352551506","fuente":"OpenStreetMap","validada":false,"recinto_militar_validado":false,"validacion_mide":"pendiente"}},{"type":"Feature","geometry":{"type":"Point","coordinates":[-69.871435,18.4682071]},"properties":{"id":"MIL-OSM-WAY-408343117","nombre":"Acceso a la Base Naval","categoria":"Cuarteles / recintos militares","direccion":"","ciudad":"","provincia":"","telefono":"","website":"","osm_type":"way","osm_id":408343117,"osm_url":"https://www.openstreetmap.org/way/408343117","fuente":"OpenStreetMap","validada":false,"recinto_militar_validado":false,"validacion_mide":"pendiente"}},{"type":"Feature","geometry":{"type":"Point","coordinates":[-69.6220983,18.4649013]},"properties":{"id":"MIL-OSM-WAY-888956991","nombre":"Acceso a la Base Naval","categoria":"Cuarteles / recintos militares","direccion":"","ciudad":"","provincia":"","telefono":"","website":"","osm_type":"way","osm_id":888956991,"osm_url":"https://www.openstreetmap.org/way/888956991","fuente":"OpenStreetMap","validada":false,"recinto_militar_validado":false,"validacion_mide":"pendiente"}},{"type":"Feature","geometry":{"type":"Point","coordinates":[-69.6221686,18.4648402]},"properties":{"id":"MIL-OSM-WAY-888956992","nombre":"Acceso a la Base Naval","categoria":"Cuarteles / recintos militares","direccion":"","ciudad":"","provincia":"","telefono":"","website":"","osm_type":"way","osm_id":888956992,"osm_url":"https://www.openstreetmap.org/way/888956992","fuente":"OpenStreetMap","validada":false,"recinto_militar_validado":false,"validacion_mide":"pendiente"}},{"type":"Feature","geometry":{"type":"Point","coordinates":[-69.6051291,18.4483853]},"properties":{"id":"MIL-OSM-NODE-3412619503","nombre":"Armada","categoria":"Cuarteles / recintos militares","direccion":"","ciudad":"","provincia":"","telefono":"","website":"","osm_type":"node","osm_id":3412619503,"osm_url":"https://www.openstreetmap.org/node/3412619503","fuente":"OpenStreetMap","validada":false,"recinto_militar_validado":false,"validacion_mide":"pendiente"}},{"type":"Feature","geometry":{"type":"Point","coordinates":[-70.8774874,19.9002649]},"properties":{"id":"MIL-OSM-WAY-629622036","nombre":"Armada Dominicana","categoria":"Cuarteles / recintos militares","direccion":"","ciudad":"","provincia":"","telefono":"","website":"","osm_type":"way","osm_id":629622036,"osm_url":"https://www.openstreetmap.org/way/629622036","fuente":"OpenStreetMap","validada":false,"recinto_militar_validado":false,"validacion_mide":"pendiente"}},{"type":"Feature","geometry":{"type":"Point","coordinates":[-70.5765536,19.7519905]},"properties":{"id":"MIL-OSM-WAY-179704414","nombre":"Avenida Base Aérea","categoria":"Cuarteles / recintos militares","direccion":"","ciudad":"","provincia":"","telefono":"","website":"","osm_type":"way","osm_id":179704414,"osm_url":"https://www.openstreetmap.org/way/179704414","fuente":"OpenStreetMap","validada":false,"recinto_militar_validado":false,"validacion_mide":"pendiente"}},{"type":"Feature","geometry":{"type":"Point","coordinates":[-69.6175844,18.4598915]},"properties":{"id":"MIL-OSM-WAY-1196928748","nombre":"Avenida Base Naval","categoria":"Cuarteles / recintos militares","direccion":"","ciudad":"","provincia":"","telefono":"","website":"","osm_type":"way","osm_id":1196928748,"osm_url":"https://www.openstreetmap.org/way/1196928748","fuente":"OpenStreetMap","validada":false,"recinto_militar_validado":false,"validacion_mide":"pendiente"}},{"type":"Feature","geometry":{"type":"Point","coordinates":[-69.6176761,18.4598631]},"properties":{"id":"MIL-OSM-WAY-1196928749","nombre":"Avenida Base Naval","categoria":"Cuarteles / recintos militares","direccion":"","ciudad":"","provincia":"","telefono":"","website":"","osm_type":"way","osm_id":1196928749,"osm_url":"https://www.openstreetmap.org/way/1196928749","fuente":"OpenStreetMap","validada":false,"recinto_militar_validado":false,"validacion_mide":"pendiente"}},{"type":"Feature","geometry":{"type":"Point","coordinates":[-70.0761125,18.5646005]},"properties":{"id":"MIL-OSM-WAY-1469049658","nombre":"Avenida del Ejército","categoria":"Cuarteles / recintos militares","direccion":"","ciudad":"","provincia":"","telefono":"","website":"","osm_type":"way","osm_id":1469049658,"osm_url":"https://www.openstreetmap.org/way/1469049658","fuente":"OpenStreetMap","validada":false,"recinto_militar_validado":false,"validacion_mide":"pendiente"}},{"type":"Feature","geometry":{"type":"Point","coordinates":[-70.0758593,18.5645272]},"properties":{"id":"MIL-OSM-WAY-1469049659","nombre":"Avenida del Ejército","categoria":"Cuarteles / recintos militares","direccion":"","ciudad":"","provincia":"","telefono":"","website":"","osm_type":"way","osm_id":1469049659,"osm_url":"https://www.openstreetmap.org/way/1469049659","fuente":"OpenStreetMap","validada":false,"recinto_militar_validado":false,"validacion_mide":"pendiente"}},{"type":"Feature","geometry":{"type":"Point","coordinates":[-70.0787754,18.5691552]},"properties":{"id":"MIL-OSM-WAY-176019425","nombre":"Avenida del Ejército","categoria":"Cuarteles / recintos militares","direccion":"","ciudad":"","provincia":"","telefono":"","website":"","osm_type":"way","osm_id":176019425,"osm_url":"https://www.openstreetmap.org/way/176019425","fuente":"OpenStreetMap","validada":false,"recinto_militar_validado":false,"validacion_mide":"pendiente"}},{"type":"Feature","geometry":{"type":"Point","coordinates":[-70.5772797,19.7523855]},"properties":{"id":"MIL-OSM-WAY-887668111","nombre":"Base Aérea de Puerto Plata","categoria":"Cuarteles / recintos militares","direccion":"","ciudad":"","provincia":"","telefono":"","website":"","osm_type":"way","osm_id":887668111,"osm_url":"https://www.openstreetmap.org/way/887668111","fuente":"OpenStreetMap","validada":false,"recinto_militar_validado":false,"validacion_mide":"pendiente"}},{"type":"Feature","geometry":{"type":"Point","coordinates":[-69.7614838,18.5059415]},"properties":{"id":"MIL-OSM-NODE-5627625174","nombre":"Base Aérea de San Isidro","categoria":"Cuarteles / recintos militares","direccion":"","ciudad":"","provincia":"","telefono":"","website":"","osm_type":"node","osm_id":5627625174,"osm_url":"https://www.openstreetmap.org/node/5627625174","fuente":"OpenStreetMap","validada":false,"recinto_militar_validado":false,"validacion_mide":"pendiente"}},{"type":"Feature","geometry":{"type":"Point","coordinates":[-69.763969,18.5101299]},"properties":{"id":"MIL-OSM-WAY-383496830","nombre":"Base Aérea de San Isidro","categoria":"Cuarteles / recintos militares","direccion":"","ciudad":"","provincia":"","telefono":"","website":"","osm_type":"way","osm_id":383496830,"osm_url":"https://www.openstreetmap.org/way/383496830","fuente":"OpenStreetMap","validada":false,"recinto_militar_validado":false,"validacion_mide":"pendiente"}},{"type":"Feature","geometry":{"type":"Point","coordinates":[-71.694138,18.7148601]},"properties":{"id":"MIL-OSM-WAY-574578410","nombre":"Base Militar de Hondo Valle","categoria":"Cuarteles / recintos militares","direccion":"Calle Juan Pablo Duarte","ciudad":"Hondo Valle","provincia":"","telefono":"","website":"","osm_type":"way","osm_id":574578410,"osm_url":"https://www.openstreetmap.org/way/574578410","fuente":"OpenStreetMap","validada":false,"recinto_militar_validado":false,"validacion_mide":"pendiente"}},{"type":"Feature","geometry":{"type":"Point","coordinates":[-69.8752357,18.472118]},"properties":{"id":"MIL-OSM-WAY-28092193","nombre":"Base Naval 27 de Febrero","categoria":"Cuarteles / recintos militares","direccion":"","ciudad":"","provincia":"","telefono":"","website":"","osm_type":"way","osm_id":28092193,"osm_url":"https://www.openstreetmap.org/way/28092193","fuente":"OpenStreetMap","validada":false,"recinto_militar_validado":false,"validacion_mide":"pendiente"}},{"type":"Feature","geometry":{"type":"Point","coordinates":[-69.8728844,18.4695336]},"properties":{"id":"MIL-OSM-WAY-28092194","nombre":"Base Naval 27 de Febrero","categoria":"Cuarteles / recintos militares","direccion":"","ciudad":"","provincia":"","telefono":"","website":"","osm_type":"way","osm_id":28092194,"osm_url":"https://www.openstreetmap.org/way/28092194","fuente":"OpenStreetMap","validada":false,"recinto_militar_validado":false,"validacion_mide":"pendiente"}},{"type":"Feature","geometry":{"type":"Point","coordinates":[-70.5130279,18.216026]},"properties":{"id":"MIL-OSM-WAY-366502043","nombre":"Base Naval Las Calderas","categoria":"Cuarteles / recintos militares","direccion":"","ciudad":"","provincia":"","telefono":"","website":"","osm_type":"way","osm_id":366502043,"osm_url":"https://www.openstreetmap.org/way/366502043","fuente":"OpenStreetMap","validada":false,"recinto_militar_validado":false,"validacion_mide":"pendiente"}},{"type":"Feature","geometry":{"type":"Point","coordinates":[-69.6230489,18.4683254]},"properties":{"id":"MIL-OSM-WAY-888956993","nombre":"Base Naval Marina de Guerra","categoria":"Cuarteles / recintos militares","direccion":"","ciudad":"","provincia":"","telefono":"","website":"","osm_type":"way","osm_id":888956993,"osm_url":"https://www.openstreetmap.org/way/888956993","fuente":"OpenStreetMap","validada":false,"recinto_militar_validado":false,"validacion_mide":"pendiente"}},{"type":"Feature","geometry":{"type":"Point","coordinates":[-70.5327712,19.3896172]},"properties":{"id":"MIL-OSM-WAY-1334869198","nombre":"Calle de las Fuerzas Armadas","categoria":"Cuarteles / recintos militares","direccion":"","ciudad":"","provincia":"","telefono":"","website":"","osm_type":"way","osm_id":1334869198,"osm_url":"https://www.openstreetmap.org/way/1334869198","fuente":"OpenStreetMap","validada":false,"recinto_militar_validado":false,"validacion_mide":"pendiente"}},{"type":"Feature","geometry":{"type":"Point","coordinates":[-71.7504962,19.6983247]},"properties":{"id":"MIL-OSM-WAY-630320881","nombre":"Calle del Ejército","categoria":"Cuarteles / recintos militares","direccion":"","ciudad":"","provincia":"","telefono":"","website":"","osm_type":"way","osm_id":630320881,"osm_url":"https://www.openstreetmap.org/way/630320881","fuente":"OpenStreetMap","validada":false,"recinto_militar_validado":false,"validacion_mide":"pendiente"}},{"type":"Feature","geometry":{"type":"Point","coordinates":[-71.7525549,19.6985217]},"properties":{"id":"MIL-OSM-WAY-630320884","nombre":"Calle del Ejército","categoria":"Cuarteles / recintos militares","direccion":"","ciudad":"","provincia":"","telefono":"","website":"","osm_type":"way","osm_id":630320884,"osm_url":"https://www.openstreetmap.org/way/630320884","fuente":"OpenStreetMap","validada":false,"recinto_militar_validado":false,"validacion_mide":"pendiente"}},{"type":"Feature","geometry":{"type":"Point","coordinates":[-69.9612027,18.4618061]},"properties":{"id":"MIL-OSM-WAY-28266613","nombre":"Calle Fuerzas Armadas","categoria":"Cuarteles / recintos militares","direccion":"","ciudad":"","provincia":"","telefono":"","website":"","osm_type":"way","osm_id":28266613,"osm_url":"https://www.openstreetmap.org/way/28266613","fuente":"OpenStreetMap","validada":false,"recinto_militar_validado":false,"validacion_mide":"pendiente"}},{"type":"Feature","geometry":{"type":"Point","coordinates":[-70.5087896,19.0293058]},"properties":{"id":"MIL-OSM-WAY-435011892","nombre":"Campamento Los Cazadores","categoria":"Cuarteles / recintos militares","direccion":"","ciudad":"","provincia":"","telefono":"","website":"","osm_type":"way","osm_id":435011892,"osm_url":"https://www.openstreetmap.org/way/435011892","fuente":"OpenStreetMap","validada":false,"recinto_militar_validado":false,"validacion_mide":"pendiente"}},{"type":"Feature","geometry":{"type":"Point","coordinates":[-69.896648,18.4759897]},"properties":{"id":"MIL-OSM-WAY-406840022","nombre":"Campamento Militar Luciano Diaz Tejera","categoria":"Cuarteles / recintos militares","direccion":"","ciudad":"","provincia":"","telefono":"","website":"","osm_type":"way","osm_id":406840022,"osm_url":"https://www.openstreetmap.org/way/406840022","fuente":"OpenStreetMap","validada":false,"recinto_militar_validado":false,"validacion_mide":"pendiente"}},{"type":"Feature","geometry":{"type":"Point","coordinates":[-69.9240701,18.4884395]},"properties":{"id":"MIL-OSM-WAY-618338309","nombre":"Centro de Operaciones de Emergencias (COE)","categoria":"Cuarteles / recintos militares","direccion":"Calle Plaza de la Salud","ciudad":"Santo Domingo","provincia":"","telefono":"(809) 472-0909","website":"https://www.coe.gob.do/index.php","osm_type":"way","osm_id":618338309,"osm_url":"https://www.openstreetmap.org/way/618338309","fuente":"OpenStreetMap","validada":false,"recinto_militar_validado":false,"validacion_mide":"pendiente"}},{"type":"Feature","geometry":{"type":"Point","coordinates":[-70.2739949,18.7961884]},"properties":{"id":"MIL-OSM-WAY-462227332","nombre":"Centro Regional de Entrenamiento Canino K-9","categoria":"Cuarteles / recintos militares","direccion":"","ciudad":"","provincia":"","telefono":"","website":"","osm_type":"way","osm_id":462227332,"osm_url":"https://www.openstreetmap.org/way/462227332","fuente":"OpenStreetMap","validada":false,"recinto_militar_validado":false,"validacion_mide":"pendiente"}},{"type":"Feature","geometry":{"type":"Point","coordinates":[-71.70732,18.8790936]},"properties":{"id":"MIL-OSM-WAY-363645216","nombre":"CESFRONT","categoria":"Cuarteles / recintos militares","direccion":"","ciudad":"","provincia":"","telefono":"","website":"","osm_type":"way","osm_id":363645216,"osm_url":"https://www.openstreetmap.org/way/363645216","fuente":"OpenStreetMap","validada":false,"recinto_militar_validado":false,"validacion_mide":"pendiente"}},{"type":"Feature","geometry":{"type":"Point","coordinates":[-71.7069982,18.8790226]},"properties":{"id":"MIL-OSM-NODE-3678130528","nombre":"CESFRONT - Ejercito Fronterizo","categoria":"Cuarteles / recintos militares","direccion":"","ciudad":"","provincia":"","telefono":"","website":"","osm_type":"node","osm_id":3678130528,"osm_url":"https://www.openstreetmap.org/node/3678130528","fuente":"OpenStreetMap","validada":false,"recinto_militar_validado":false,"validacion_mide":"pendiente"}},{"type":"Feature","geometry":{"type":"Point","coordinates":[-71.1683257,19.8237096]},"properties":{"id":"MIL-OSM-NODE-2087070883","nombre":"Chequeo Militar Estero Hondo","categoria":"Cuarteles / recintos militares","direccion":"","ciudad":"","provincia":"","telefono":"","website":"","osm_type":"node","osm_id":2087070883,"osm_url":"https://www.openstreetmap.org/node/2087070883","fuente":"OpenStreetMap","validada":false,"recinto_militar_validado":false,"validacion_mide":"pendiente"}},{"type":"Feature","geometry":{"type":"Point","coordinates":[-70.0256378,18.4591661]},"properties":{"id":"MIL-OSM-WAY-461631665","nombre":"Ciudad de Operaciones Especiales","categoria":"Cuarteles / recintos militares","direccion":"","ciudad":"","provincia":"","telefono":"","website":"","osm_type":"way","osm_id":461631665,"osm_url":"https://www.openstreetmap.org/way/461631665","fuente":"OpenStreetMap","validada":false,"recinto_militar_validado":false,"validacion_mide":"pendiente"}},{"type":"Feature","geometry":{"type":"Point","coordinates":[-69.8732793,18.4700937]},"properties":{"id":"MIL-OSM-NODE-12621642595","nombre":"Club Naval para Alistados de la Armada de la República Dominicana","categoria":"Cuarteles / recintos militares","direccion":"","ciudad":"","provincia":"","telefono":"","website":"","osm_type":"node","osm_id":12621642595,"osm_url":"https://www.openstreetmap.org/node/12621642595","fuente":"OpenStreetMap","validada":false,"recinto_militar_validado":false,"validacion_mide":"pendiente"}},{"type":"Feature","geometry":{"type":"Point","coordinates":[-70.7568416,18.9021849]},"properties":{"id":"MIL-OSM-WAY-173190597","nombre":"Comandancia de Ejército","categoria":"Cuarteles / recintos militares","direccion":"","ciudad":"","provincia":"","telefono":"","website":"","osm_type":"way","osm_id":173190597,"osm_url":"https://www.openstreetmap.org/way/173190597","fuente":"OpenStreetMap","validada":false,"recinto_militar_validado":false,"validacion_mide":"pendiente"}},{"type":"Feature","geometry":{"type":"Point","coordinates":[-69.9142434,18.5157484]},"properties":{"id":"MIL-OSM-WAY-673937879","nombre":"Comedor","categoria":"Cuarteles / recintos militares","direccion":"","ciudad":"","provincia":"","telefono":"","website":"","osm_type":"way","osm_id":673937879,"osm_url":"https://www.openstreetmap.org/way/673937879","fuente":"OpenStreetMap","validada":false,"recinto_militar_validado":false,"validacion_mide":"pendiente"}},{"type":"Feature","geometry":{"type":"Point","coordinates":[-70.6504637,19.7673932]},"properties":{"id":"MIL-OSM-NODE-372653318","nombre":"Complejo Hotelero Playa Dorada","categoria":"Cuarteles / recintos militares","direccion":"","ciudad":"","provincia":"","telefono":"","website":"","osm_type":"node","osm_id":372653318,"osm_url":"https://www.openstreetmap.org/node/372653318","fuente":"OpenStreetMap","validada":false,"recinto_militar_validado":false,"validacion_mide":"pendiente"}},{"type":"Feature","geometry":{"type":"Point","coordinates":[-71.7545377,18.031526]},"properties":{"id":"MIL-OSM-WAY-1116041590","nombre":"cuartel de la marina","categoria":"Cuarteles / recintos militares","direccion":"","ciudad":"","provincia":"","telefono":"","website":"","osm_type":"way","osm_id":1116041590,"osm_url":"https://www.openstreetmap.org/way/1116041590","fuente":"OpenStreetMap","validada":false,"recinto_militar_validado":false,"validacion_mide":"pendiente"}},{"type":"Feature","geometry":{"type":"Point","coordinates":[-70.7176624,19.4551069]},"properties":{"id":"MIL-OSM-NODE-2982765709","nombre":"Cuartel La Otra Banda","categoria":"Cuarteles / recintos militares","direccion":"","ciudad":"","provincia":"","telefono":"","website":"","osm_type":"node","osm_id":2982765709,"osm_url":"https://www.openstreetmap.org/node/2982765709","fuente":"OpenStreetMap","validada":false,"recinto_militar_validado":false,"validacion_mide":"pendiente"}},{"type":"Feature","geometry":{"type":"Point","coordinates":[-71.3995268,17.7995288]},"properties":{"id":"MIL-OSM-WAY-1299913829","nombre":"Cuartel Militar","categoria":"Cuarteles / recintos militares","direccion":"","ciudad":"","provincia":"","telefono":"","website":"","osm_type":"way","osm_id":1299913829,"osm_url":"https://www.openstreetmap.org/way/1299913829","fuente":"OpenStreetMap","validada":false,"recinto_militar_validado":false,"validacion_mide":"pendiente"}},{"type":"Feature","geometry":{"type":"Point","coordinates":[-71.7326142,18.1065236]},"properties":{"id":"MIL-OSM-NODE-10213359219","nombre":"Cuarteles / recintos militares sin nombre","categoria":"Cuarteles / recintos militares","direccion":"","ciudad":"","provincia":"","telefono":"","website":"","osm_type":"node","osm_id":10213359219,"osm_url":"https://www.openstreetmap.org/node/10213359219","fuente":"OpenStreetMap","validada":false,"recinto_militar_validado":false,"validacion_mide":"pendiente"}},{"type":"Feature","geometry":{"type":"Point","coordinates":[-71.7251063,18.1712089]},"properties":{"id":"MIL-OSM-NODE-10213359233","nombre":"Cuarteles / recintos militares sin nombre","categoria":"Cuarteles / recintos militares","direccion":"","ciudad":"","provincia":"","telefono":"","website":"","osm_type":"node","osm_id":10213359233,"osm_url":"https://www.openstreetmap.org/node/10213359233","fuente":"OpenStreetMap","validada":false,"recinto_militar_validado":false,"validacion_mide":"pendiente"}},{"type":"Feature","geometry":{"type":"Point","coordinates":[-71.7356643,18.1241149]},"properties":{"id":"MIL-OSM-NODE-11654691285","nombre":"Cuarteles / recintos militares sin nombre","categoria":"Cuarteles / recintos militares","direccion":"","ciudad":"","provincia":"","telefono":"","website":"","osm_type":"node","osm_id":11654691285,"osm_url":"https://www.openstreetmap.org/node/11654691285","fuente":"OpenStreetMap","validada":false,"recinto_militar_validado":false,"validacion_mide":"pendiente"}},{"type":"Feature","geometry":{"type":"Point","coordinates":[-71.74121,18.146593]},"properties":{"id":"MIL-OSM-NODE-11654691286","nombre":"Cuarteles / recintos militares sin nombre","categoria":"Cuarteles / recintos militares","direccion":"","ciudad":"","provincia":"","telefono":"","website":"","osm_type":"node","osm_id":11654691286,"osm_url":"https://www.openstreetmap.org/node/11654691286","fuente":"OpenStreetMap","validada":false,"recinto_militar_validado":false,"validacion_mide":"pendiente"}},{"type":"Feature","geometry":{"type":"Point","coordinates":[-71.7423221,18.1396258]},"properties":{"id":"MIL-OSM-NODE-11654691287","nombre":"Cuarteles / recintos militares sin nombre","categoria":"Cuarteles / recintos militares","direccion":"","ciudad":"","provincia":"","telefono":"","website":"","osm_type":"node","osm_id":11654691287,"osm_url":"https://www.openstreetmap.org/node/11654691287","fuente":"OpenStreetMap","validada":false,"recinto_militar_validado":false,"validacion_mide":"pendiente"}},{"type":"Feature","geometry":{"type":"Point","coordinates":[-71.7447131,18.2037716]},"properties":{"id":"MIL-OSM-NODE-11654691293","nombre":"Cuarteles / recintos militares sin nombre","categoria":"Cuarteles / recintos militares","direccion":"","ciudad":"","provincia":"","telefono":"","website":"","osm_type":"node","osm_id":11654691293,"osm_url":"https://www.openstreetmap.org/node/11654691293","fuente":"OpenStreetMap","validada":false,"recinto_militar_validado":false,"validacion_mide":"pendiente"}},{"type":"Feature","geometry":{"type":"Point","coordinates":[-71.7359943,18.1298984]},"properties":{"id":"MIL-OSM-NODE-11654691309","nombre":"Cuarteles / recintos militares sin nombre","categoria":"Cuarteles / recintos militares","direccion":"","ciudad":"","provincia":"","telefono":"","website":"","osm_type":"node","osm_id":11654691309,"osm_url":"https://www.openstreetmap.org/node/11654691309","fuente":"OpenStreetMap","validada":false,"recinto_militar_validado":false,"validacion_mide":"pendiente"}},{"type":"Feature","geometry":{"type":"Point","coordinates":[-71.7371323,18.1400001]},"properties":{"id":"MIL-OSM-NODE-11654710347","nombre":"Cuarteles / recintos militares sin nombre","categoria":"Cuarteles / recintos militares","direccion":"","ciudad":"","provincia":"","telefono":"","website":"","osm_type":"node","osm_id":11654710347,"osm_url":"https://www.openstreetmap.org/node/11654710347","fuente":"OpenStreetMap","validada":false,"recinto_militar_validado":false,"validacion_mide":"pendiente"}},{"type":"Feature","geometry":{"type":"Point","coordinates":[-70.4050389,19.1082458]},"properties":{"id":"MIL-OSM-NODE-1407817372","nombre":"Cuarteles / recintos militares sin nombre","categoria":"Cuarteles / recintos militares","direccion":"","ciudad":"","provincia":"","telefono":"","website":"","osm_type":"node","osm_id":1407817372,"osm_url":"https://www.openstreetmap.org/node/1407817372","fuente":"OpenStreetMap","validada":false,"recinto_militar_validado":false,"validacion_mide":"pendiente"}},{"type":"Feature","geometry":{"type":"Point","coordinates":[-70.9416779,19.5972106]},"properties":{"id":"MIL-OSM-NODE-2268816318","nombre":"Cuarteles / recintos militares sin nombre","categoria":"Cuarteles / recintos militares","direccion":"","ciudad":"","provincia":"","telefono":"","website":"","osm_type":"node","osm_id":2268816318,"osm_url":"https://www.openstreetmap.org/node/2268816318","fuente":"OpenStreetMap","validada":false,"recinto_militar_validado":false,"validacion_mide":"pendiente"}},{"type":"Feature","geometry":{"type":"Point","coordinates":[-71.4216666,19.7338241]},"properties":{"id":"MIL-OSM-NODE-2268816347","nombre":"Cuarteles / recintos militares sin nombre","categoria":"Cuarteles / recintos militares","direccion":"","ciudad":"","provincia":"","telefono":"","website":"","osm_type":"node","osm_id":2268816347,"osm_url":"https://www.openstreetmap.org/node/2268816347","fuente":"OpenStreetMap","validada":false,"recinto_militar_validado":false,"validacion_mide":"pendiente"}},{"type":"Feature","geometry":{"type":"Point","coordinates":[-70.2877388,19.2758578]},"properties":{"id":"MIL-OSM-NODE-3247631113","nombre":"Cuarteles / recintos militares sin nombre","categoria":"Cuarteles / recintos militares","direccion":"","ciudad":"","provincia":"","telefono":"","website":"","osm_type":"node","osm_id":3247631113,"osm_url":"https://www.openstreetmap.org/node/3247631113","fuente":"OpenStreetMap","validada":false,"recinto_militar_validado":false,"validacion_mide":"pendiente"}},{"type":"Feature","geometry":{"type":"Point","coordinates":[-70.1915234,19.033641]},"properties":{"id":"MIL-OSM-NODE-5022120512","nombre":"Cuarteles / recintos militares sin nombre","categoria":"Cuarteles / recintos militares","direccion":"","ciudad":"Cotui","provincia":"","telefono":"","website":"","osm_type":"node","osm_id":5022120512,"osm_url":"https://www.openstreetmap.org/node/5022120512","fuente":"OpenStreetMap","validada":false,"recinto_militar_validado":false,"validacion_mide":"pendiente"}},{"type":"Feature","geometry":{"type":"Point","coordinates":[-71.7669625,18.195698]},"properties":{"id":"MIL-OSM-NODE-9906365540","nombre":"Cuarteles / recintos militares sin nombre","categoria":"Cuarteles / recintos militares","direccion":"","ciudad":"","provincia":"","telefono":"","website":"","osm_type":"node","osm_id":9906365540,"osm_url":"https://www.openstreetmap.org/node/9906365540","fuente":"OpenStreetMap","validada":false,"recinto_militar_validado":false,"validacion_mide":"pendiente"}},{"type":"Feature","geometry":{"type":"Point","coordinates":[-71.4251574,18.4799295]},"properties":{"id":"MIL-OSM-WAY-1183011475","nombre":"Cuarteles / recintos militares sin nombre","categoria":"Cuarteles / recintos militares","direccion":"","ciudad":"","provincia":"","telefono":"","website":"","osm_type":"way","osm_id":1183011475,"osm_url":"https://www.openstreetmap.org/way/1183011475","fuente":"OpenStreetMap","validada":false,"recinto_militar_validado":false,"validacion_mide":"pendiente"}},{"type":"Feature","geometry":{"type":"Point","coordinates":[-71.2345045,18.8063969]},"properties":{"id":"MIL-OSM-WAY-1225100041","nombre":"Cuarteles / recintos militares sin nombre","categoria":"Cuarteles / recintos militares","direccion":"","ciudad":"","provincia":"","telefono":"","website":"","osm_type":"way","osm_id":1225100041,"osm_url":"https://www.openstreetmap.org/way/1225100041","fuente":"OpenStreetMap","validada":false,"recinto_militar_validado":false,"validacion_mide":"pendiente"}},{"type":"Feature","geometry":{"type":"Point","coordinates":[-71.7269331,18.0306555]},"properties":{"id":"MIL-OSM-WAY-1243884288","nombre":"Cuarteles / recintos militares sin nombre","categoria":"Cuarteles / recintos militares","direccion":"","ciudad":"","provincia":"","telefono":"","website":"","osm_type":"way","osm_id":1243884288,"osm_url":"https://www.openstreetmap.org/way/1243884288","fuente":"OpenStreetMap","validada":false,"recinto_militar_validado":false,"validacion_mide":"pendiente"}},{"type":"Feature","geometry":{"type":"Point","coordinates":[-71.7768818,18.1935455]},"properties":{"id":"MIL-OSM-WAY-1254646949","nombre":"Cuarteles / recintos militares sin nombre","categoria":"Cuarteles / recintos militares","direccion":"","ciudad":"","provincia":"","telefono":"","website":"","osm_type":"way","osm_id":1254646949,"osm_url":"https://www.openstreetmap.org/way/1254646949","fuente":"OpenStreetMap","validada":false,"recinto_militar_validado":false,"validacion_mide":"pendiente"}},{"type":"Feature","geometry":{"type":"Point","coordinates":[-71.6553508,19.1425267]},"properties":{"id":"MIL-OSM-WAY-1272268563","nombre":"Cuarteles / recintos militares sin nombre","categoria":"Cuarteles / recintos militares","direccion":"","ciudad":"","provincia":"","telefono":"","website":"","osm_type":"way","osm_id":1272268563,"osm_url":"https://www.openstreetmap.org/way/1272268563","fuente":"OpenStreetMap","validada":false,"recinto_militar_validado":false,"validacion_mide":"pendiente"}},{"type":"Feature","geometry":{"type":"Point","coordinates":[-71.6626192,19.1131534]},"properties":{"id":"MIL-OSM-WAY-1272268571","nombre":"Cuarteles / recintos militares sin nombre","categoria":"Cuarteles / recintos militares","direccion":"","ciudad":"","provincia":"","telefono":"","website":"","osm_type":"way","osm_id":1272268571,"osm_url":"https://www.openstreetmap.org/way/1272268571","fuente":"OpenStreetMap","validada":false,"recinto_militar_validado":false,"validacion_mide":"pendiente"}},{"type":"Feature","geometry":{"type":"Point","coordinates":[-69.8981113,18.4750566]},"properties":{"id":"MIL-OSM-WAY-1476065256","nombre":"Cuarteles / recintos militares sin nombre","categoria":"Cuarteles / recintos militares","direccion":"","ciudad":"","provincia":"","telefono":"","website":"","osm_type":"way","osm_id":1476065256,"osm_url":"https://www.openstreetmap.org/way/1476065256","fuente":"OpenStreetMap","validada":false,"recinto_militar_validado":false,"validacion_mide":"pendiente"}},{"type":"Feature","geometry":{"type":"Point","coordinates":[-69.897894,18.4751202]},"properties":{"id":"MIL-OSM-WAY-1476065257","nombre":"Cuarteles / recintos militares sin nombre","categoria":"Cuarteles / recintos militares","direccion":"","ciudad":"","provincia":"","telefono":"","website":"","osm_type":"way","osm_id":1476065257,"osm_url":"https://www.openstreetmap.org/way/1476065257","fuente":"OpenStreetMap","validada":false,"recinto_militar_validado":false,"validacion_mide":"pendiente"}},{"type":"Feature","geometry":{"type":"Point","coordinates":[-71.692315,19.3159438]},"properties":{"id":"MIL-OSM-WAY-207310963","nombre":"Cuarteles / recintos militares sin nombre","categoria":"Cuarteles / recintos militares","direccion":"","ciudad":"","provincia":"","telefono":"","website":"","osm_type":"way","osm_id":207310963,"osm_url":"https://www.openstreetmap.org/way/207310963","fuente":"OpenStreetMap","validada":false,"recinto_militar_validado":false,"validacion_mide":"pendiente"}},{"type":"Feature","geometry":{"type":"Point","coordinates":[-68.3591565,18.6488465]},"properties":{"id":"MIL-OSM-WAY-255722186","nombre":"Cuarteles / recintos militares sin nombre","categoria":"Cuarteles / recintos militares","direccion":"","ciudad":"","provincia":"","telefono":"","website":"","osm_type":"way","osm_id":255722186,"osm_url":"https://www.openstreetmap.org/way/255722186","fuente":"OpenStreetMap","validada":false,"recinto_militar_validado":false,"validacion_mide":"pendiente"}},{"type":"Feature","geometry":{"type":"Point","coordinates":[-71.520437,18.3769565]},"properties":{"id":"MIL-OSM-WAY-310436474","nombre":"Cuarteles / recintos militares sin nombre","categoria":"Cuarteles / recintos militares","direccion":"","ciudad":"","provincia":"","telefono":"","website":"","osm_type":"way","osm_id":310436474,"osm_url":"https://www.openstreetmap.org/way/310436474","fuente":"OpenStreetMap","validada":false,"recinto_militar_validado":false,"validacion_mide":"pendiente"}},{"type":"Feature","geometry":{"type":"Point","coordinates":[-71.7071886,18.8791685]},"properties":{"id":"MIL-OSM-WAY-363645215","nombre":"Cuarteles / recintos militares sin nombre","categoria":"Cuarteles / recintos militares","direccion":"","ciudad":"","provincia":"","telefono":"","website":"","osm_type":"way","osm_id":363645215,"osm_url":"https://www.openstreetmap.org/way/363645215","fuente":"OpenStreetMap","validada":false,"recinto_militar_validado":false,"validacion_mide":"pendiente"}},{"type":"Feature","geometry":{"type":"Point","coordinates":[-69.913631,18.5156573]},"properties":{"id":"MIL-OSM-WAY-673937881","nombre":"Cuarteles / recintos militares sin nombre","categoria":"Cuarteles / recintos militares","direccion":"","ciudad":"","provincia":"","telefono":"","website":"","osm_type":"way","osm_id":673937881,"osm_url":"https://www.openstreetmap.org/way/673937881","fuente":"OpenStreetMap","validada":false,"recinto_militar_validado":false,"validacion_mide":"pendiente"}},{"type":"Feature","geometry":{"type":"Point","coordinates":[-69.9140644,18.5162361]},"properties":{"id":"MIL-OSM-WAY-673937891","nombre":"Cuarteles / recintos militares sin nombre","categoria":"Cuarteles / recintos militares","direccion":"","ciudad":"","provincia":"","telefono":"","website":"","osm_type":"way","osm_id":673937891,"osm_url":"https://www.openstreetmap.org/way/673937891","fuente":"OpenStreetMap","validada":false,"recinto_militar_validado":false,"validacion_mide":"pendiente"}},{"type":"Feature","geometry":{"type":"Point","coordinates":[-69.9142002,18.5153279]},"properties":{"id":"MIL-OSM-WAY-673937892","nombre":"Cuarteles / recintos militares sin nombre","categoria":"Cuarteles / recintos militares","direccion":"","ciudad":"","provincia":"","telefono":"","website":"","osm_type":"way","osm_id":673937892,"osm_url":"https://www.openstreetmap.org/way/673937892","fuente":"OpenStreetMap","validada":false,"recinto_militar_validado":false,"validacion_mide":"pendiente"}},{"type":"Feature","geometry":{"type":"Point","coordinates":[-69.9133221,18.5163425]},"properties":{"id":"MIL-OSM-WAY-673937894","nombre":"Cuarteles / recintos militares sin nombre","categoria":"Cuarteles / recintos militares","direccion":"","ciudad":"","provincia":"","telefono":"","website":"","osm_type":"way","osm_id":673937894,"osm_url":"https://www.openstreetmap.org/way/673937894","fuente":"OpenStreetMap","validada":false,"recinto_militar_validado":false,"validacion_mide":"pendiente"}},{"type":"Feature","geometry":{"type":"Point","coordinates":[-71.080627,19.5579378]},"properties":{"id":"MIL-OSM-WAY-689254716","nombre":"Cuarteles / recintos militares sin nombre","categoria":"Cuarteles / recintos militares","direccion":"","ciudad":"","provincia":"","telefono":"","website":"","osm_type":"way","osm_id":689254716,"osm_url":"https://www.openstreetmap.org/way/689254716","fuente":"OpenStreetMap","validada":false,"recinto_militar_validado":false,"validacion_mide":"pendiente"}},{"type":"Feature","geometry":{"type":"Point","coordinates":[-71.6963405,18.8751494]},"properties":{"id":"MIL-OSM-WAY-689533840","nombre":"Cuarteles / recintos militares sin nombre","categoria":"Cuarteles / recintos militares","direccion":"","ciudad":"","provincia":"","telefono":"","website":"","osm_type":"way","osm_id":689533840,"osm_url":"https://www.openstreetmap.org/way/689533840","fuente":"OpenStreetMap","validada":false,"recinto_militar_validado":false,"validacion_mide":"pendiente"}},{"type":"Feature","geometry":{"type":"Point","coordinates":[-71.6942122,18.7148476]},"properties":{"id":"MIL-OSM-WAY-689765189","nombre":"Cuarteles / recintos militares sin nombre","categoria":"Cuarteles / recintos militares","direccion":"","ciudad":"","provincia":"","telefono":"","website":"","osm_type":"way","osm_id":689765189,"osm_url":"https://www.openstreetmap.org/way/689765189","fuente":"OpenStreetMap","validada":false,"recinto_militar_validado":false,"validacion_mide":"pendiente"}},{"type":"Feature","geometry":{"type":"Point","coordinates":[-71.8535361,18.4941805]},"properties":{"id":"MIL-OSM-WAY-689803792","nombre":"Cuarteles / recintos militares sin nombre","categoria":"Cuarteles / recintos militares","direccion":"","ciudad":"","provincia":"","telefono":"","website":"","osm_type":"way","osm_id":689803792,"osm_url":"https://www.openstreetmap.org/way/689803792","fuente":"OpenStreetMap","validada":false,"recinto_militar_validado":false,"validacion_mide":"pendiente"}},{"type":"Feature","geometry":{"type":"Point","coordinates":[-71.0980672,18.2119801]},"properties":{"id":"MIL-OSM-WAY-690819304","nombre":"Cuarteles / recintos militares sin nombre","categoria":"Cuarteles / recintos militares","direccion":"","ciudad":"","provincia":"","telefono":"","website":"","osm_type":"way","osm_id":690819304,"osm_url":"https://www.openstreetmap.org/way/690819304","fuente":"OpenStreetMap","validada":false,"recinto_militar_validado":false,"validacion_mide":"pendiente"}},{"type":"Feature","geometry":{"type":"Point","coordinates":[-70.0093916,18.5201333]},"properties":{"id":"MIL-OSM-WAY-810909276","nombre":"Cuarteles / recintos militares sin nombre","categoria":"Cuarteles / recintos militares","direccion":"","ciudad":"","provincia":"","telefono":"","website":"","osm_type":"way","osm_id":810909276,"osm_url":"https://www.openstreetmap.org/way/810909276","fuente":"OpenStreetMap","validada":false,"recinto_militar_validado":false,"validacion_mide":"pendiente"}},{"type":"Feature","geometry":{"type":"Point","coordinates":[-71.0162466,19.3740894]},"properties":{"id":"MIL-OSM-WAY-984461374","nombre":"Cuarteles / recintos militares sin nombre","categoria":"Cuarteles / recintos militares","direccion":"","ciudad":"","provincia":"","telefono":"","website":"","osm_type":"way","osm_id":984461374,"osm_url":"https://www.openstreetmap.org/way/984461374","fuente":"OpenStreetMap","validada":false,"recinto_militar_validado":false,"validacion_mide":"pendiente"}},{"type":"Feature","geometry":{"type":"Point","coordinates":[-69.9132611,18.4683896]},"properties":{"id":"MIL-OSM-WAY-463371308","nombre":"Cuerpo de Seguridad Presidencial (CUSEP)","categoria":"Cuarteles / recintos militares","direccion":"","ciudad":"","provincia":"","telefono":"","website":"","osm_type":"way","osm_id":463371308,"osm_url":"https://www.openstreetmap.org/way/463371308","fuente":"OpenStreetMap","validada":false,"recinto_militar_validado":false,"validacion_mide":"pendiente"}},{"type":"Feature","geometry":{"type":"Point","coordinates":[-71.1111662,19.5640554]},"properties":{"id":"MIL-OSM-WAY-428346015","nombre":"Cárcel de Mao Nº 18","categoria":"Cuarteles / recintos militares","direccion":"","ciudad":"","provincia":"","telefono":"","website":"","osm_type":"way","osm_id":428346015,"osm_url":"https://www.openstreetmap.org/way/428346015","fuente":"OpenStreetMap","validada":false,"recinto_militar_validado":false,"validacion_mide":"pendiente"}},{"type":"Feature","geometry":{"type":"Point","coordinates":[-69.896102,18.4744288]},"properties":{"id":"MIL-OSM-WAY-222969805","nombre":"Departamento Nacional de Investigaciones (DNI)","categoria":"Cuarteles / recintos militares","direccion":"Calle Moisés García","ciudad":"Santo Domingo","provincia":"","telefono":"","website":"","osm_type":"way","osm_id":222969805,"osm_url":"https://www.openstreetmap.org/way/222969805","fuente":"OpenStreetMap","validada":false,"recinto_militar_validado":false,"validacion_mide":"pendiente"}},{"type":"Feature","geometry":{"type":"Point","coordinates":[-70.5685014,18.3552555]},"properties":{"id":"MIL-OSM-NODE-8796771679","nombre":"Destacamento ARD Playa Chiquita","categoria":"Cuarteles / recintos militares","direccion":"","ciudad":"","provincia":"","telefono":"","website":"","osm_type":"node","osm_id":8796771679,"osm_url":"https://www.openstreetmap.org/node/8796771679","fuente":"OpenStreetMap","validada":false,"recinto_militar_validado":false,"validacion_mide":"pendiente"}},{"type":"Feature","geometry":{"type":"Point","coordinates":[-71.6959688,19.1040547]},"properties":{"id":"MIL-OSM-WAY-504322839","nombre":"Destacamento del Ejército Dominicano de Pedro Santana","categoria":"Cuarteles / recintos militares","direccion":"","ciudad":"","provincia":"","telefono":"","website":"","osm_type":"way","osm_id":504322839,"osm_url":"https://www.openstreetmap.org/way/504322839","fuente":"OpenStreetMap","validada":false,"recinto_militar_validado":false,"validacion_mide":"pendiente"}},{"type":"Feature","geometry":{"type":"Point","coordinates":[-71.6827726,19.6730387]},"properties":{"id":"MIL-OSM-NODE-2268816276","nombre":"Destacamento E. N. Copey","categoria":"Cuarteles / recintos militares","direccion":"","ciudad":"","provincia":"","telefono":"","website":"","osm_type":"node","osm_id":2268816276,"osm_url":"https://www.openstreetmap.org/node/2268816276","fuente":"OpenStreetMap","validada":false,"recinto_militar_validado":false,"validacion_mide":"pendiente"}},{"type":"Feature","geometry":{"type":"Point","coordinates":[-69.9603828,18.8047997]},"properties":{"id":"MIL-OSM-WAY-466523767","nombre":"Destacamento PN","categoria":"Cuarteles / recintos militares","direccion":"","ciudad":"","provincia":"","telefono":"","website":"","osm_type":"way","osm_id":466523767,"osm_url":"https://www.openstreetmap.org/way/466523767","fuente":"OpenStreetMap","validada":false,"recinto_militar_validado":false,"validacion_mide":"pendiente"}},{"type":"Feature","geometry":{"type":"Point","coordinates":[-69.914219,18.5160977]},"properties":{"id":"MIL-OSM-WAY-673937878","nombre":"Direccion, CESMET","categoria":"Cuarteles / recintos militares","direccion":"","ciudad":"","provincia":"","telefono":"","website":"","osm_type":"way","osm_id":673937878,"osm_url":"https://www.openstreetmap.org/way/673937878","fuente":"OpenStreetMap","validada":false,"recinto_militar_validado":false,"validacion_mide":"pendiente"}},{"type":"Feature","geometry":{"type":"Point","coordinates":[-69.9133819,18.4723865]},"properties":{"id":"MIL-OSM-WAY-174548874","nombre":"Dirección Nacional de Control de Drogas (DNCD)","categoria":"Cuarteles / recintos militares","direccion":"","ciudad":"","provincia":"","telefono":"","website":"","osm_type":"way","osm_id":174548874,"osm_url":"https://www.openstreetmap.org/way/174548874","fuente":"OpenStreetMap","validada":false,"recinto_militar_validado":false,"validacion_mide":"pendiente"}},{"type":"Feature","geometry":{"type":"Point","coordinates":[-69.9110557,18.5159408]},"properties":{"id":"MIL-OSM-WAY-304022705","nombre":"El Polvorín","categoria":"Cuarteles / recintos militares","direccion":"","ciudad":"","provincia":"","telefono":"","website":"","osm_type":"way","osm_id":304022705,"osm_url":"https://www.openstreetmap.org/way/304022705","fuente":"OpenStreetMap","validada":false,"recinto_militar_validado":false,"validacion_mide":"pendiente"}},{"type":"Feature","geometry":{"type":"Point","coordinates":[-69.9144308,18.5159206]},"properties":{"id":"MIL-OSM-NODE-4102749627","nombre":"Entrada Brigada Apoyo, Ejercito Rep. Dom","categoria":"Cuarteles / recintos militares","direccion":"","ciudad":"","provincia":"","telefono":"","website":"","osm_type":"node","osm_id":4102749627,"osm_url":"https://www.openstreetmap.org/node/4102749627","fuente":"OpenStreetMap","validada":false,"recinto_militar_validado":false,"validacion_mide":"pendiente"}},{"type":"Feature","geometry":{"type":"Point","coordinates":[-69.2993924,18.4563869]},"properties":{"id":"MIL-OSM-WAY-157770456","nombre":"Escuela de Formacion Laboral de las Fuerzas Armadas","categoria":"Cuarteles / recintos militares","direccion":"","ciudad":"","provincia":"","telefono":"","website":"","osm_type":"way","osm_id":157770456,"osm_url":"https://www.openstreetmap.org/way/157770456","fuente":"OpenStreetMap","validada":false,"recinto_militar_validado":false,"validacion_mide":"pendiente"}},{"type":"Feature","geometry":{"type":"Point","coordinates":[-70.5891462,19.4743949]},"properties":{"id":"MIL-OSM-WAY-458683429","nombre":"Escuela Militar Canca La Piedra","categoria":"Cuarteles / recintos militares","direccion":"","ciudad":"","provincia":"","telefono":"","website":"","osm_type":"way","osm_id":458683429,"osm_url":"https://www.openstreetmap.org/way/458683429","fuente":"OpenStreetMap","validada":false,"recinto_militar_validado":false,"validacion_mide":"pendiente"}},{"type":"Feature","geometry":{"type":"Point","coordinates":[-69.8491466,19.3725842]},"properties":{"id":"MIL-OSM-WAY-745541395","nombre":"Escuela Vocacional de las FF.AA.","categoria":"Cuarteles / recintos militares","direccion":"","ciudad":"","provincia":"","telefono":"","website":"","osm_type":"way","osm_id":745541395,"osm_url":"https://www.openstreetmap.org/way/745541395","fuente":"OpenStreetMap","validada":false,"recinto_militar_validado":false,"validacion_mide":"pendiente"}},{"type":"Feature","geometry":{"type":"Point","coordinates":[-70.3264288,18.2741037]},"properties":{"id":"MIL-OSM-WAY-1177917309","nombre":"Escuela Vocacional de las Fuerzas Armadas y la Policía Nacional","categoria":"Cuarteles / recintos militares","direccion":"Calle Canela Mota","ciudad":"","provincia":"","telefono":"","website":"https://www.digev.mil.do/","osm_type":"way","osm_id":1177917309,"osm_url":"https://www.openstreetmap.org/way/1177917309","fuente":"OpenStreetMap","validada":false,"recinto_militar_validado":false,"validacion_mide":"pendiente"}},{"type":"Feature","geometry":{"type":"Point","coordinates":[-71.4263863,18.4797281]},"properties":{"id":"MIL-OSM-WAY-1183011476","nombre":"Escuela Vocacional de las Fuerzas Armadas y la Policía Nacional de Neiba","categoria":"Cuarteles / recintos militares","direccion":"Avenida Apolimar Perdomo","ciudad":"Neiba","provincia":"","telefono":"","website":"","osm_type":"way","osm_id":1183011476,"osm_url":"https://www.openstreetmap.org/way/1183011476","fuente":"OpenStreetMap","validada":false,"recinto_militar_validado":false,"validacion_mide":"pendiente"}},{"type":"Feature","geometry":{"type":"Point","coordinates":[-70.9464499,19.3428424]},"properties":{"id":"MIL-OSM-WAY-1184889728","nombre":"Escuela Vocacional de las Fuerzas Armadas y la Policía Nacional de San José de las Matas","categoria":"Cuarteles / recintos militares","direccion":"","ciudad":"San José de las Matas","provincia":"","telefono":"","website":"","osm_type":"way","osm_id":1184889728,"osm_url":"https://www.openstreetmap.org/way/1184889728","fuente":"OpenStreetMap","validada":false,"recinto_militar_validado":false,"validacion_mide":"pendiente"}},{"type":"Feature","geometry":{"type":"Point","coordinates":[-69.7727835,18.5284322]},"properties":{"id":"MIL-OSM-WAY-250767591","nombre":"Escuelas Vocacionales de las Fuerzas Armadas","categoria":"Cuarteles / recintos militares","direccion":"","ciudad":"","provincia":"","telefono":"","website":"","osm_type":"way","osm_id":250767591,"osm_url":"https://www.openstreetmap.org/way/250767591","fuente":"OpenStreetMap","validada":false,"recinto_militar_validado":false,"validacion_mide":"pendiente"}},{"type":"Feature","geometry":{"type":"Point","coordinates":[-70.7344883,18.4593015]},"properties":{"id":"MIL-OSM-WAY-244243825","nombre":"Fortaleza 19 de Marzo","categoria":"Cuarteles / recintos militares","direccion":"Calle Colón","ciudad":"Azua de Compostela","provincia":"","telefono":"","website":"https://www.ejercito.mil.do/","osm_type":"way","osm_id":244243825,"osm_url":"https://www.openstreetmap.org/way/244243825","fuente":"OpenStreetMap","validada":false,"recinto_militar_validado":false,"validacion_mide":"pendiente"}},{"type":"Feature","geometry":{"type":"Point","coordinates":[-70.524716,19.3999717]},"properties":{"id":"MIL-OSM-WAY-424854799","nombre":"Fortaleza 2 de Mayo","categoria":"Cuarteles / recintos militares","direccion":"Duarte","ciudad":"Moca","provincia":"","telefono":"809-822-1427","website":"","osm_type":"way","osm_id":424854799,"osm_url":"https://www.openstreetmap.org/way/424854799","fuente":"OpenStreetMap","validada":false,"recinto_militar_validado":false,"validacion_mide":"pendiente"}},{"type":"Feature","geometry":{"type":"Point","coordinates":[-71.6923162,19.3162335]},"properties":{"id":"MIL-OSM-WAY-1440439197","nombre":"Fortaleza 2º Teniente Miguel A. Rodríguez Aybar","categoria":"Cuarteles / recintos militares","direccion":"","ciudad":"","provincia":"","telefono":"","website":"","osm_type":"way","osm_id":1440439197,"osm_url":"https://www.openstreetmap.org/way/1440439197","fuente":"OpenStreetMap","validada":false,"recinto_militar_validado":false,"validacion_mide":"pendiente"}},{"type":"Feature","geometry":{"type":"Point","coordinates":[-71.7005817,19.0798403]},"properties":{"id":"MIL-OSM-WAY-1440977798","nombre":"Fortaleza de Bánica","categoria":"Cuarteles / recintos militares","direccion":"","ciudad":"","provincia":"","telefono":"","website":"","osm_type":"way","osm_id":1440977798,"osm_url":"https://www.openstreetmap.org/way/1440977798","fuente":"OpenStreetMap","validada":false,"recinto_militar_validado":false,"validacion_mide":"pendiente"}},{"type":"Feature","geometry":{"type":"Point","coordinates":[-71.7370717,18.0340369]},"properties":{"id":"MIL-OSM-WAY-691537797","nombre":"Fortaleza de la 5ª Brigada del Ejército Nacional Dominicano","categoria":"Cuarteles / recintos militares","direccion":"","ciudad":"","provincia":"","telefono":"","website":"","osm_type":"way","osm_id":691537797,"osm_url":"https://www.openstreetmap.org/way/691537797","fuente":"OpenStreetMap","validada":false,"recinto_militar_validado":false,"validacion_mide":"pendiente"}},{"type":"Feature","geometry":{"type":"Point","coordinates":[-68.9700644,18.4463508]},"properties":{"id":"MIL-OSM-WAY-935566078","nombre":"Fortaleza de La Romana","categoria":"Cuarteles / recintos militares","direccion":"","ciudad":"","provincia":"","telefono":"","website":"","osm_type":"way","osm_id":935566078,"osm_url":"https://www.openstreetmap.org/way/935566078","fuente":"OpenStreetMap","validada":false,"recinto_militar_validado":false,"validacion_mide":"pendiente"}},{"type":"Feature","geometry":{"type":"Point","coordinates":[-71.4252624,18.4795225]},"properties":{"id":"MIL-OSM-WAY-1183011474","nombre":"Fortaleza de Neiba","categoria":"Cuarteles / recintos militares","direccion":"Avenida Apolimar Perdomo","ciudad":"Neiba","provincia":"","telefono":"","website":"","osm_type":"way","osm_id":1183011474,"osm_url":"https://www.openstreetmap.org/way/1183011474","fuente":"OpenStreetMap","validada":false,"recinto_militar_validado":false,"validacion_mide":"pendiente"}},{"type":"Feature","geometry":{"type":"Point","coordinates":[-70.4985674,18.5825655]},"properties":{"id":"MIL-OSM-WAY-1438637543","nombre":"Fortaleza de Sabana Larga","categoria":"Cuarteles / recintos militares","direccion":"","ciudad":"","provincia":"","telefono":"","website":"","osm_type":"way","osm_id":1438637543,"osm_url":"https://www.openstreetmap.org/way/1438637543","fuente":"OpenStreetMap","validada":false,"recinto_militar_validado":false,"validacion_mide":"pendiente"}},{"type":"Feature","geometry":{"type":"Point","coordinates":[-71.0958536,18.2126115]},"properties":{"id":"MIL-OSM-WAY-690819303","nombre":"Fortaleza del Ejército Nacional Dominicano","categoria":"Cuarteles / recintos militares","direccion":"","ciudad":"","provincia":"","telefono":"","website":"","osm_type":"way","osm_id":690819303,"osm_url":"https://www.openstreetmap.org/way/690819303","fuente":"OpenStreetMap","validada":false,"recinto_militar_validado":false,"validacion_mide":"pendiente"}},{"type":"Feature","geometry":{"type":"Point","coordinates":[-71.5159817,18.8737386]},"properties":{"id":"MIL-OSM-WAY-1170394049","nombre":"Fortaleza del Ejército Nacional General Pedro Florentino","categoria":"Cuarteles / recintos militares","direccion":"","ciudad":"","provincia":"","telefono":"","website":"","osm_type":"way","osm_id":1170394049,"osm_url":"https://www.openstreetmap.org/way/1170394049","fuente":"OpenStreetMap","validada":false,"recinto_militar_validado":false,"validacion_mide":"pendiente"}},{"type":"Feature","geometry":{"type":"Point","coordinates":[-70.9318098,19.3391768]},"properties":{"id":"MIL-OSM-WAY-1438257267","nombre":"Fortaleza General Bartolomé Mejía E.","categoria":"Cuarteles / recintos militares","direccion":"","ciudad":"","provincia":"","telefono":"","website":"","osm_type":"way","osm_id":1438257267,"osm_url":"https://www.openstreetmap.org/way/1438257267","fuente":"OpenStreetMap","validada":false,"recinto_militar_validado":false,"validacion_mide":"pendiente"}},{"type":"Feature","geometry":{"type":"Point","coordinates":[-71.0808793,19.557595]},"properties":{"id":"MIL-OSM-WAY-666229012","nombre":"Fortaleza General Benito Monción","categoria":"Cuarteles / recintos militares","direccion":"","ciudad":"","provincia":"","telefono":"","website":"","osm_type":"way","osm_id":666229012,"osm_url":"https://www.openstreetmap.org/way/666229012","fuente":"OpenStreetMap","validada":false,"recinto_militar_validado":false,"validacion_mide":"pendiente"}},{"type":"Feature","geometry":{"type":"Point","coordinates":[-70.7425739,18.9064333]},"properties":{"id":"MIL-OSM-WAY-173877344","nombre":"Fortaleza General de Brigada Carlos A. Castillo Pimentel","categoria":"Cuarteles / recintos militares","direccion":"","ciudad":"","provincia":"","telefono":"","website":"","osm_type":"way","osm_id":173877344,"osm_url":"https://www.openstreetmap.org/way/173877344","fuente":"OpenStreetMap","validada":false,"recinto_militar_validado":false,"validacion_mide":"pendiente"}},{"type":"Feature","geometry":{"type":"Point","coordinates":[-70.6570947,19.4340027]},"properties":{"id":"MIL-OSM-WAY-31928231","nombre":"Fortaleza General de División Fernando Valerio ERD","categoria":"Cuarteles / recintos militares","direccion":"Autopista Duarte","ciudad":"Santiago de los Caballeros","provincia":"","telefono":"","website":"","osm_type":"way","osm_id":31928231,"osm_url":"https://www.openstreetmap.org/way/31928231","fuente":"OpenStreetMap","validada":false,"recinto_militar_validado":false,"validacion_mide":"pendiente"}},{"type":"Feature","geometry":{"type":"Point","coordinates":[-69.7812141,18.8010571]},"properties":{"id":"MIL-OSM-WAY-1437884305","nombre":"Fortaleza General Eusebio Manzueta","categoria":"Cuarteles / recintos militares","direccion":"","ciudad":"","provincia":"","telefono":"","website":"","osm_type":"way","osm_id":1437884305,"osm_url":"https://www.openstreetmap.org/way/1437884305","fuente":"OpenStreetMap","validada":false,"recinto_militar_validado":false,"validacion_mide":"pendiente"}},{"type":"Feature","geometry":{"type":"Point","coordinates":[-71.6975842,19.5515399]},"properties":{"id":"MIL-OSM-WAY-1440871606","nombre":"Fortaleza General Francisco A. Salcedo","categoria":"Cuarteles / recintos militares","direccion":"","ciudad":"","provincia":"","telefono":"","website":"","osm_type":"way","osm_id":1440871606,"osm_url":"https://www.openstreetmap.org/way/1440871606","fuente":"OpenStreetMap","validada":false,"recinto_militar_validado":false,"validacion_mide":"pendiente"}},{"type":"Feature","geometry":{"type":"Point","coordinates":[-71.5204655,18.3768198]},"properties":{"id":"MIL-OSM-WAY-310436786","nombre":"Fortaleza General Francisco Sosa","categoria":"Cuarteles / recintos militares","direccion":"","ciudad":"","provincia":"","telefono":"","website":"","osm_type":"way","osm_id":310436786,"osm_url":"https://www.openstreetmap.org/way/310436786","fuente":"OpenStreetMap","validada":false,"recinto_militar_validado":false,"validacion_mide":"pendiente"}},{"type":"Feature","geometry":{"type":"Point","coordinates":[-69.3106312,18.4692415]},"properties":{"id":"MIL-OSM-WAY-884844331","nombre":"Fortaleza General Pedro Santana","categoria":"Cuarteles / recintos militares","direccion":"","ciudad":"","provincia":"","telefono":"","website":"","osm_type":"way","osm_id":884844331,"osm_url":"https://www.openstreetmap.org/way/884844331","fuente":"OpenStreetMap","validada":false,"recinto_militar_validado":false,"validacion_mide":"pendiente"}},{"type":"Feature","geometry":{"type":"Point","coordinates":[-70.2605627,19.3010559]},"properties":{"id":"MIL-OSM-WAY-166550744","nombre":"Fortaleza Juan Pablo Duarte","categoria":"Cuarteles / recintos militares","direccion":"","ciudad":"","provincia":"","telefono":"","website":"","osm_type":"way","osm_id":166550744,"osm_url":"https://www.openstreetmap.org/way/166550744","fuente":"OpenStreetMap","validada":false,"recinto_militar_validado":false,"validacion_mide":"pendiente"}},{"type":"Feature","geometry":{"type":"Point","coordinates":[-70.5190559,19.2198819]},"properties":{"id":"MIL-OSM-WAY-414002622","nombre":"Fortaleza La Concepción","categoria":"Cuarteles / recintos militares","direccion":"","ciudad":"","provincia":"","telefono":"","website":"","osm_type":"way","osm_id":414002622,"osm_url":"https://www.openstreetmap.org/way/414002622","fuente":"OpenStreetMap","validada":false,"recinto_militar_validado":false,"validacion_mide":"pendiente"}},{"type":"Feature","geometry":{"type":"Point","coordinates":[-71.8530262,18.4938594]},"properties":{"id":"MIL-OSM-WAY-660290593","nombre":"Fortaleza Militar de Jimaní","categoria":"Cuarteles / recintos militares","direccion":"","ciudad":"","provincia":"","telefono":"","website":"","osm_type":"way","osm_id":660290593,"osm_url":"https://www.openstreetmap.org/way/660290593","fuente":"OpenStreetMap","validada":false,"recinto_militar_validado":false,"validacion_mide":"pendiente"}},{"type":"Feature","geometry":{"type":"Point","coordinates":[-71.6967799,18.875226]},"properties":{"id":"MIL-OSM-WAY-363516478","nombre":"Fortaleza Militar del Ejército Dominicano - Elías Piña","categoria":"Cuarteles / recintos militares","direccion":"","ciudad":"","provincia":"","telefono":"","website":"","osm_type":"way","osm_id":363516478,"osm_url":"https://www.openstreetmap.org/way/363516478","fuente":"OpenStreetMap","validada":false,"recinto_militar_validado":false,"validacion_mide":"pendiente"}},{"type":"Feature","geometry":{"type":"Point","coordinates":[-70.1482158,19.061396]},"properties":{"id":"MIL-OSM-WAY-369325338","nombre":"Fortaleza Palo Hincado","categoria":"Cuarteles / recintos militares","direccion":"","ciudad":"","provincia":"","telefono":"","website":"","osm_type":"way","osm_id":369325338,"osm_url":"https://www.openstreetmap.org/way/369325338","fuente":"OpenStreetMap","validada":false,"recinto_militar_validado":false,"validacion_mide":"pendiente"}},{"type":"Feature","geometry":{"type":"Point","coordinates":[-71.6502016,19.8444569]},"properties":{"id":"MIL-OSM-WAY-500675405","nombre":"Fortaleza San Fernando","categoria":"Cuarteles / recintos militares","direccion":"","ciudad":"","provincia":"","telefono":"","website":"","osm_type":"way","osm_id":500675405,"osm_url":"https://www.openstreetmap.org/way/500675405","fuente":"OpenStreetMap","validada":false,"recinto_militar_validado":false,"validacion_mide":"pendiente"}},{"type":"Feature","geometry":{"type":"Point","coordinates":[-70.7028298,19.448115]},"properties":{"id":"MIL-OSM-WAY-31360964","nombre":"Fortaleza San Luis","categoria":"Cuarteles / recintos militares","direccion":"","ciudad":"","provincia":"","telefono":"","website":"","osm_type":"way","osm_id":31360964,"osm_url":"https://www.openstreetmap.org/way/31360964","fuente":"OpenStreetMap","validada":false,"recinto_militar_validado":false,"validacion_mide":"pendiente"}},{"type":"Feature","geometry":{"type":"Point","coordinates":[-69.0422803,18.7669677]},"properties":{"id":"MIL-OSM-WAY-493355334","nombre":"Fortaleza Santa Cruz","categoria":"Cuarteles / recintos militares","direccion":"Avenida Manuela Díez","ciudad":"El Seibo","provincia":"","telefono":"","website":"","osm_type":"way","osm_id":493355334,"osm_url":"https://www.openstreetmap.org/way/493355334","fuente":"OpenStreetMap","validada":false,"recinto_militar_validado":false,"validacion_mide":"pendiente"}},{"type":"Feature","geometry":{"type":"Point","coordinates":[-70.7683602,18.9589795]},"properties":{"id":"MIL-OSM-WAY-172960577","nombre":"Gualdaparques Medio Ambiente","categoria":"Cuarteles / recintos militares","direccion":"","ciudad":"","provincia":"","telefono":"","website":"","osm_type":"way","osm_id":172960577,"osm_url":"https://www.openstreetmap.org/way/172960577","fuente":"OpenStreetMap","validada":false,"recinto_militar_validado":false,"validacion_mide":"pendiente"}},{"type":"Feature","geometry":{"type":"Point","coordinates":[-69.9069896,18.480856]},"properties":{"id":"MIL-OSM-WAY-418197238","nombre":"Hermandad de Pensionados De las Fuerzas Armadas y la Policia","categoria":"Cuarteles / recintos militares","direccion":"","ciudad":"","provincia":"","telefono":"","website":"","osm_type":"way","osm_id":418197238,"osm_url":"https://www.openstreetmap.org/way/418197238","fuente":"OpenStreetMap","validada":false,"recinto_militar_validado":false,"validacion_mide":"pendiente"}},{"type":"Feature","geometry":{"type":"Point","coordinates":[-69.9211866,18.4808964]},"properties":{"id":"MIL-OSM-WAY-174355947","nombre":"Hospital Central de las Fuerzas Armadas","categoria":"Cuarteles / recintos militares","direccion":"Avenida Ortega y Gasset","ciudad":"Santo Domingo","provincia":"","telefono":"+809 541 9339","website":"","osm_type":"way","osm_id":174355947,"osm_url":"https://www.openstreetmap.org/way/174355947","fuente":"OpenStreetMap","validada":false,"recinto_militar_validado":false,"validacion_mide":"pendiente"}},{"type":"Feature","geometry":{"type":"Point","coordinates":[-69.9404395,18.4607287]},"properties":{"id":"MIL-OSM-WAY-408753407","nombre":"Iglesia Ejercito de Dio","categoria":"Cuarteles / recintos militares","direccion":"Avenida 27 de Febrero 313","ciudad":"Santo Domingo","provincia":"","telefono":"","website":"","osm_type":"way","osm_id":408753407,"osm_url":"https://www.openstreetmap.org/way/408753407","fuente":"OpenStreetMap","validada":false,"recinto_militar_validado":false,"validacion_mide":"pendiente"}},{"type":"Feature","geometry":{"type":"Point","coordinates":[-70.2762094,19.2865068]},"properties":{"id":"MIL-OSM-NODE-4377289450","nombre":"Malacate","categoria":"Cuarteles / recintos militares","direccion":"","ciudad":"","provincia":"","telefono":"","website":"","osm_type":"node","osm_id":4377289450,"osm_url":"https://www.openstreetmap.org/node/4377289450","fuente":"OpenStreetMap","validada":false,"recinto_militar_validado":false,"validacion_mide":"pendiente"}},{"type":"Feature","geometry":{"type":"Point","coordinates":[-70.2760262,19.2860786]},"properties":{"id":"MIL-OSM-NODE-6700464068","nombre":"Malacate","categoria":"Cuarteles / recintos militares","direccion":"","ciudad":"","provincia":"","telefono":"","website":"","osm_type":"node","osm_id":6700464068,"osm_url":"https://www.openstreetmap.org/node/6700464068","fuente":"OpenStreetMap","validada":false,"recinto_militar_validado":false,"validacion_mide":"pendiente"}},{"type":"Feature","geometry":{"type":"Point","coordinates":[-71.5233946,17.6142464]},"properties":{"id":"MIL-OSM-NODE-10224052599","nombre":"Marina Isla Beata","categoria":"Cuarteles / recintos militares","direccion":"","ciudad":"","provincia":"","telefono":"","website":"","osm_type":"node","osm_id":10224052599,"osm_url":"https://www.openstreetmap.org/node/10224052599","fuente":"OpenStreetMap","validada":false,"recinto_militar_validado":false,"validacion_mide":"pendiente"}},{"type":"Feature","geometry":{"type":"Point","coordinates":[-69.9736353,18.4476617]},"properties":{"id":"MIL-OSM-WAY-199913316","nombre":"Ministerio de Defensa","categoria":"Cuarteles / recintos militares","direccion":"","ciudad":"","provincia":"","telefono":"","website":"","osm_type":"way","osm_id":199913316,"osm_url":"https://www.openstreetmap.org/way/199913316","fuente":"OpenStreetMap","validada":false,"recinto_militar_validado":false,"validacion_mide":"pendiente"}},{"type":"Feature","geometry":{"type":"Point","coordinates":[-69.9744368,18.447965]},"properties":{"id":"MIL-OSM-WAY-410078646","nombre":"Ministerio de Defensa","categoria":"Cuarteles / recintos militares","direccion":"","ciudad":"Santo Domingo","provincia":"","telefono":"","website":"","osm_type":"way","osm_id":410078646,"osm_url":"https://www.openstreetmap.org/way/410078646","fuente":"OpenStreetMap","validada":false,"recinto_militar_validado":false,"validacion_mide":"pendiente"}},{"type":"Feature","geometry":{"type":"Point","coordinates":[-71.3953234,17.8001285]},"properties":{"id":"MIL-OSM-WAY-1299913833","nombre":"Nueva Policía","categoria":"Cuarteles / recintos militares","direccion":"","ciudad":"","provincia":"","telefono":"","website":"","osm_type":"way","osm_id":1299913833,"osm_url":"https://www.openstreetmap.org/way/1299913833","fuente":"OpenStreetMap","validada":false,"recinto_militar_validado":false,"validacion_mide":"pendiente"}},{"type":"Feature","geometry":{"type":"Point","coordinates":[-69.9144372,18.5166256]},"properties":{"id":"MIL-OSM-WAY-673937887","nombre":"Operaciones & RHH, CESMET","categoria":"Cuarteles / recintos militares","direccion":"","ciudad":"","provincia":"","telefono":"","website":"","osm_type":"way","osm_id":673937887,"osm_url":"https://www.openstreetmap.org/way/673937887","fuente":"OpenStreetMap","validada":false,"recinto_militar_validado":false,"validacion_mide":"pendiente"}},{"type":"Feature","geometry":{"type":"Point","coordinates":[-70.5724208,19.7509305]},"properties":{"id":"MIL-OSM-WAY-437770472","nombre":"Pizza Base Aérea","categoria":"Cuarteles / recintos militares","direccion":"","ciudad":"","provincia":"","telefono":"","website":"","osm_type":"way","osm_id":437770472,"osm_url":"https://www.openstreetmap.org/way/437770472","fuente":"OpenStreetMap","validada":false,"recinto_militar_validado":false,"validacion_mide":"pendiente"}},{"type":"Feature","geometry":{"type":"Point","coordinates":[-71.4046082,17.8031475]},"properties":{"id":"MIL-OSM-WAY-1299913830","nombre":"Policia","categoria":"Cuarteles / recintos militares","direccion":"","ciudad":"","provincia":"","telefono":"","website":"","osm_type":"way","osm_id":1299913830,"osm_url":"https://www.openstreetmap.org/way/1299913830","fuente":"OpenStreetMap","validada":false,"recinto_militar_validado":false,"validacion_mide":"pendiente"}},{"type":"Feature","geometry":{"type":"Point","coordinates":[-70.6133076,19.4874613]},"properties":{"id":"MIL-OSM-WAY-451268260","nombre":"Policia Tamboril","categoria":"Cuarteles / recintos militares","direccion":"","ciudad":"","provincia":"","telefono":"","website":"","osm_type":"way","osm_id":451268260,"osm_url":"https://www.openstreetmap.org/way/451268260","fuente":"OpenStreetMap","validada":false,"recinto_militar_validado":false,"validacion_mide":"pendiente"}},{"type":"Feature","geometry":{"type":"Point","coordinates":[-71.7447718,18.0350887]},"properties":{"id":"MIL-OSM-WAY-1113039022","nombre":"policía nacional","categoria":"Cuarteles / recintos militares","direccion":"","ciudad":"","provincia":"","telefono":"","website":"","osm_type":"way","osm_id":1113039022,"osm_url":"https://www.openstreetmap.org/way/1113039022","fuente":"OpenStreetMap","validada":false,"recinto_militar_validado":false,"validacion_mide":"pendiente"}},{"type":"Feature","geometry":{"type":"Point","coordinates":[-70.0780943,18.5732427]},"properties":{"id":"MIL-OSM-WAY-463796917","nombre":"Primera Brigada de Infantería del Ejército de la República Dominicana","categoria":"Cuarteles / recintos militares","direccion":"","ciudad":"","provincia":"","telefono":"","website":"","osm_type":"way","osm_id":463796917,"osm_url":"https://www.openstreetmap.org/way/463796917","fuente":"OpenStreetMap","validada":false,"recinto_militar_validado":false,"validacion_mide":"pendiente"}},{"type":"Feature","geometry":{"type":"Point","coordinates":[-68.8952498,18.3985669]},"properties":{"id":"MIL-OSM-WAY-496491588","nombre":"Puesto Armada Dominicana","categoria":"Cuarteles / recintos militares","direccion":"","ciudad":"","provincia":"","telefono":"","website":"","osm_type":"way","osm_id":496491588,"osm_url":"https://www.openstreetmap.org/way/496491588","fuente":"OpenStreetMap","validada":false,"recinto_militar_validado":false,"validacion_mide":"pendiente"}},{"type":"Feature","geometry":{"type":"Point","coordinates":[-71.7548978,18.0405435]},"properties":{"id":"MIL-OSM-WAY-1225248006","nombre":"puesto control militar","categoria":"Cuarteles / recintos militares","direccion":"","ciudad":"","provincia":"","telefono":"","website":"","osm_type":"way","osm_id":1225248006,"osm_url":"https://www.openstreetmap.org/way/1225248006","fuente":"OpenStreetMap","validada":false,"recinto_militar_validado":false,"validacion_mide":"pendiente"}},{"type":"Feature","geometry":{"type":"Point","coordinates":[-70.548218,18.2268518]},"properties":{"id":"MIL-OSM-WAY-1178229496","nombre":"Puesto de la Armada de República Dominicana","categoria":"Cuarteles / recintos militares","direccion":"","ciudad":"","provincia":"","telefono":"","website":"","osm_type":"way","osm_id":1178229496,"osm_url":"https://www.openstreetmap.org/way/1178229496","fuente":"OpenStreetMap","validada":false,"recinto_militar_validado":false,"validacion_mide":"pendiente"}},{"type":"Feature","geometry":{"type":"Point","coordinates":[-70.7231641,19.2873955]},"properties":{"id":"MIL-OSM-NODE-2387615396","nombre":"Puesto del Ejército Nacional","categoria":"Cuarteles / recintos militares","direccion":"","ciudad":"","provincia":"","telefono":"","website":"","osm_type":"node","osm_id":2387615396,"osm_url":"https://www.openstreetmap.org/node/2387615396","fuente":"OpenStreetMap","validada":false,"recinto_militar_validado":false,"validacion_mide":"pendiente"}},{"type":"Feature","geometry":{"type":"Point","coordinates":[-70.5101382,18.2170159]},"properties":{"id":"MIL-OSM-WAY-363765599","nombre":"Punto de chequeo","categoria":"Cuarteles / recintos militares","direccion":"","ciudad":"","provincia":"","telefono":"","website":"","osm_type":"way","osm_id":363765599,"osm_url":"https://www.openstreetmap.org/way/363765599","fuente":"OpenStreetMap","validada":false,"recinto_militar_validado":false,"validacion_mide":"pendiente"}},{"type":"Feature","geometry":{"type":"Point","coordinates":[-70.5068904,18.2169762]},"properties":{"id":"MIL-OSM-WAY-363765600","nombre":"Punto de chequeo","categoria":"Cuarteles / recintos militares","direccion":"","ciudad":"","provincia":"","telefono":"","website":"","osm_type":"way","osm_id":363765600,"osm_url":"https://www.openstreetmap.org/way/363765600","fuente":"OpenStreetMap","validada":false,"recinto_militar_validado":false,"validacion_mide":"pendiente"}},{"type":"Feature","geometry":{"type":"Point","coordinates":[-69.9132876,18.5165207]},"properties":{"id":"MIL-OSM-WAY-673937893","nombre":"Unidad Canina, CESMET","categoria":"Cuarteles / recintos militares","direccion":"","ciudad":"","provincia":"","telefono":"","website":"","osm_type":"way","osm_id":673937893,"osm_url":"https://www.openstreetmap.org/way/673937893","fuente":"OpenStreetMap","validada":false,"recinto_militar_validado":false,"validacion_mide":"pendiente"}},{"type":"Feature","geometry":{"type":"Point","coordinates":[-69.7702853,18.5315781]},"properties":{"id":"MIL-OSM-WAY-250771422","nombre":"Universidad Militar Nacional de las Fuerzas Armadas Batalla de las Carreras","categoria":"Cuarteles / recintos militares","direccion":"","ciudad":"","provincia":"","telefono":"","website":"","osm_type":"way","osm_id":250771422,"osm_url":"https://www.openstreetmap.org/way/250771422","fuente":"OpenStreetMap","validada":false,"recinto_militar_validado":false,"validacion_mide":"pendiente"}}]}