{"type":"FeatureCollection","name":"estancias_infantiles_rd_osm","attribution":"© OpenStreetMap contributors, ODbL 1.0","generated_at":"2026-09-18T16:46:15.991053Z","features":[{"type":"Feature","geometry":{"type":"Point","coordinates":[-70.6948228,19.4603132]},"properties":{"id":"ESTI-OSM-WAY-409848332","nombre":"Alas de Ángel","categoria":"Estancias infantiles / CAIPI / CAFI","direccion":"","ciudad":"","provincia":"","telefono":"+1 809 241 7006","website":"","osm_type":"way","osm_id":409848332,"osm_url":"https://www.openstreetmap.org/way/409848332","fuente":"OpenStreetMap","validada":false,"red_institucional":"pendiente","validacion_inaipi":"pendiente"}},{"type":"Feature","geometry":{"type":"Point","coordinates":[-68.818251,18.3402895]},"properties":{"id":"ESTI-OSM-NODE-9731431767","nombre":"Be Live Canoa Childcare","categoria":"Estancias infantiles / CAIPI / CAFI","direccion":"","ciudad":"","provincia":"","telefono":"","website":"","osm_type":"node","osm_id":9731431767,"osm_url":"https://www.openstreetmap.org/node/9731431767","fuente":"OpenStreetMap","validada":false,"red_institucional":"pendiente","validacion_inaipi":"pendiente"}},{"type":"Feature","geometry":{"type":"Point","coordinates":[-70.0390357,18.5441146]},"properties":{"id":"ESTI-OSM-WAY-410609962","nombre":"Beraca Estancia Infantil","categoria":"Estancias infantiles / CAIPI / CAFI","direccion":"Autopista Duarte Vieja","ciudad":"","provincia":"","telefono":"","website":"","osm_type":"way","osm_id":410609962,"osm_url":"https://www.openstreetmap.org/way/410609962","fuente":"OpenStreetMap","validada":false,"red_institucional":"pendiente","validacion_inaipi":"pendiente"}},{"type":"Feature","geometry":{"type":"Point","coordinates":[-69.8171196,18.5101906]},"properties":{"id":"ESTI-OSM-WAY-1012574960","nombre":"CAFI Invivienda","categoria":"Estancias infantiles / CAIPI / CAFI","direccion":"","ciudad":"","provincia":"","telefono":"","website":"https://inaipi.gob.do/index.php","osm_type":"way","osm_id":1012574960,"osm_url":"https://www.openstreetmap.org/way/1012574960","fuente":"OpenStreetMap","validada":false,"red_institucional":"INAIPI-candidata","validacion_inaipi":"pendiente"}},{"type":"Feature","geometry":{"type":"Point","coordinates":[-69.7510017,18.4866792]},"properties":{"id":"ESTI-OSM-WAY-581925571","nombre":"CAIPI","categoria":"Estancias infantiles / CAIPI / CAFI","direccion":"Avenida La Gaviota","ciudad":"Santo Domingo Este","provincia":"","telefono":"","website":"","osm_type":"way","osm_id":581925571,"osm_url":"https://www.openstreetmap.org/way/581925571","fuente":"OpenStreetMap","validada":false,"red_institucional":"INAIPI-candidata","validacion_inaipi":"pendiente"}},{"type":"Feature","geometry":{"type":"Point","coordinates":[-69.7501779,18.493625]},"properties":{"id":"ESTI-OSM-WAY-702275750","nombre":"CAIPI","categoria":"Estancias infantiles / CAIPI / CAFI","direccion":"","ciudad":"","provincia":"","telefono":"","website":"","osm_type":"way","osm_id":702275750,"osm_url":"https://www.openstreetmap.org/way/702275750","fuente":"OpenStreetMap","validada":false,"red_institucional":"INAIPI-candidata","validacion_inaipi":"pendiente"}},{"type":"Feature","geometry":{"type":"Point","coordinates":[-69.8154838,18.5247176]},"properties":{"id":"ESTI-OSM-WAY-1000680148","nombre":"CAIPI El Almirante","categoria":"Estancias infantiles / CAIPI / CAFI","direccion":"Avenida La Pista","ciudad":"Santo Domingo Este","provincia":"","telefono":"","website":"https://inaipi.gob.do","osm_type":"way","osm_id":1000680148,"osm_url":"https://www.openstreetmap.org/way/1000680148","fuente":"OpenStreetMap","validada":false,"red_institucional":"INAIPI-candidata","validacion_inaipi":"pendiente"}},{"type":"Feature","geometry":{"type":"Point","coordinates":[-69.8127741,18.5128015]},"properties":{"id":"ESTI-OSM-WAY-1035156672","nombre":"CAIPI La Toronja","categoria":"Estancias infantiles / CAIPI / CAFI","direccion":"Avenida La Pista","ciudad":"Santo Domingo Este","provincia":"","telefono":"","website":"https://inaipi.gob.do","osm_type":"way","osm_id":1035156672,"osm_url":"https://www.openstreetmap.org/way/1035156672","fuente":"OpenStreetMap","validada":false,"red_institucional":"INAIPI-candidata","validacion_inaipi":"pendiente"}},{"type":"Feature","geometry":{"type":"Point","coordinates":[-69.6413982,18.4533714]},"properties":{"id":"ESTI-OSM-WAY-1017469620","nombre":"CAIPI Los Cedeños","categoria":"Estancias infantiles / CAIPI / CAFI","direccion":"La Minero","ciudad":"Boca Chica","provincia":"","telefono":"","website":"https://inaipi.gob.do","osm_type":"way","osm_id":1017469620,"osm_url":"https://www.openstreetmap.org/way/1017469620","fuente":"OpenStreetMap","validada":false,"red_institucional":"INAIPI-candidata","validacion_inaipi":"pendiente"}},{"type":"Feature","geometry":{"type":"Point","coordinates":[-71.2359641,18.8187617]},"properties":{"id":"ESTI-OSM-NODE-4618995689","nombre":"Centro de Atención Integral a la Primera Infancia","categoria":"Estancias infantiles / CAIPI / CAFI","direccion":"","ciudad":"","provincia":"","telefono":"","website":"","osm_type":"node","osm_id":4618995689,"osm_url":"https://www.openstreetmap.org/node/4618995689","fuente":"OpenStreetMap","validada":false,"red_institucional":"pendiente","validacion_inaipi":"pendiente"}},{"type":"Feature","geometry":{"type":"Point","coordinates":[-70.5519547,19.74744]},"properties":{"id":"ESTI-OSM-WAY-887668153","nombre":"Centro de Atención Integral a la Primera Infancia (CAIPI)","categoria":"Estancias infantiles / CAIPI / CAFI","direccion":"","ciudad":"","provincia":"","telefono":"","website":"","osm_type":"way","osm_id":887668153,"osm_url":"https://www.openstreetmap.org/way/887668153","fuente":"OpenStreetMap","validada":false,"red_institucional":"INAIPI-candidata","validacion_inaipi":"pendiente"}},{"type":"Feature","geometry":{"type":"Point","coordinates":[-69.8836679,18.4955566]},"properties":{"id":"ESTI-OSM-NODE-5060894955","nombre":"Centro de cuidado de niños Mamita Nati","categoria":"Estancias infantiles / CAIPI / CAFI","direccion":"","ciudad":"","provincia":"","telefono":"","website":"","osm_type":"node","osm_id":5060894955,"osm_url":"https://www.openstreetmap.org/node/5060894955","fuente":"OpenStreetMap","validada":false,"red_institucional":"pendiente","validacion_inaipi":"pendiente"}},{"type":"Feature","geometry":{"type":"Point","coordinates":[-70.6940938,19.4716435]},"properties":{"id":"ESTI-OSM-WAY-409574922","nombre":"Centro De Estimulacion Temprana","categoria":"Estancias infantiles / CAIPI / CAFI","direccion":"Calle 12","ciudad":"Santiago","provincia":"","telefono":"","website":"","osm_type":"way","osm_id":409574922,"osm_url":"https://www.openstreetmap.org/way/409574922","fuente":"OpenStreetMap","validada":false,"red_institucional":"pendiente","validacion_inaipi":"pendiente"}},{"type":"Feature","geometry":{"type":"Point","coordinates":[-70.8314368,18.4634373]},"properties":{"id":"ESTI-OSM-WAY-222680231","nombre":"Centro de nutrición infantil San Agustín","categoria":"Estancias infantiles / CAIPI / CAFI","direccion":"","ciudad":"","provincia":"","telefono":"","website":"","osm_type":"way","osm_id":222680231,"osm_url":"https://www.openstreetmap.org/way/222680231","fuente":"OpenStreetMap","validada":false,"red_institucional":"pendiente","validacion_inaipi":"pendiente"}},{"type":"Feature","geometry":{"type":"Point","coordinates":[-70.8386306,18.4079428]},"properties":{"id":"ESTI-OSM-WAY-222751591","nombre":"Centro de nutrición los Ladrillos","categoria":"Estancias infantiles / CAIPI / CAFI","direccion":"","ciudad":"","provincia":"","telefono":"","website":"","osm_type":"way","osm_id":222751591,"osm_url":"https://www.openstreetmap.org/way/222751591","fuente":"OpenStreetMap","validada":false,"red_institucional":"pendiente","validacion_inaipi":"pendiente"}},{"type":"Feature","geometry":{"type":"Point","coordinates":[-69.9050067,18.4861195]},"properties":{"id":"ESTI-OSM-NODE-4530928496","nombre":"Centro Educativo el sol","categoria":"Estancias infantiles / CAIPI / CAFI","direccion":"","ciudad":"","provincia":"","telefono":"","website":"","osm_type":"node","osm_id":4530928496,"osm_url":"https://www.openstreetmap.org/node/4530928496","fuente":"OpenStreetMap","validada":false,"red_institucional":"pendiente","validacion_inaipi":"pendiente"}},{"type":"Feature","geometry":{"type":"Point","coordinates":[-69.9685804,18.4848128]},"properties":{"id":"ESTI-OSM-WAY-409840278","nombre":"Centro Educativo Mi Corralito","categoria":"Estancias infantiles / CAIPI / CAFI","direccion":"","ciudad":"","provincia":"","telefono":"","website":"","osm_type":"way","osm_id":409840278,"osm_url":"https://www.openstreetmap.org/way/409840278","fuente":"OpenStreetMap","validada":false,"red_institucional":"pendiente","validacion_inaipi":"pendiente"}},{"type":"Feature","geometry":{"type":"Point","coordinates":[-69.9737544,18.489455]},"properties":{"id":"ESTI-OSM-WAY-410111041","nombre":"Centro Educativo Montessori","categoria":"Estancias infantiles / CAIPI / CAFI","direccion":"Calle Los Senderos","ciudad":"Santo Domingo","provincia":"","telefono":"","website":"","osm_type":"way","osm_id":410111041,"osm_url":"https://www.openstreetmap.org/way/410111041","fuente":"OpenStreetMap","validada":false,"red_institucional":"pendiente","validacion_inaipi":"pendiente"}},{"type":"Feature","geometry":{"type":"Point","coordinates":[-69.849509,18.5056961]},"properties":{"id":"ESTI-OSM-WAY-414015866","nombre":"Centro Infantil","categoria":"Estancias infantiles / CAIPI / CAFI","direccion":"","ciudad":"","provincia":"","telefono":"","website":"","osm_type":"way","osm_id":414015866,"osm_url":"https://www.openstreetmap.org/way/414015866","fuente":"OpenStreetMap","validada":false,"red_institucional":"pendiente","validacion_inaipi":"pendiente"}},{"type":"Feature","geometry":{"type":"Point","coordinates":[-69.9010832,18.4814095]},"properties":{"id":"ESTI-OSM-WAY-387222236","nombre":"Centro Infantil Antituberculoso","categoria":"Estancias infantiles / CAIPI / CAFI","direccion":"","ciudad":"","provincia":"","telefono":"","website":"","osm_type":"way","osm_id":387222236,"osm_url":"https://www.openstreetmap.org/way/387222236","fuente":"OpenStreetMap","validada":false,"red_institucional":"pendiente","validacion_inaipi":"pendiente"}},{"type":"Feature","geometry":{"type":"Point","coordinates":[-69.9022001,18.5353331]},"properties":{"id":"ESTI-OSM-NODE-4106361350","nombre":"Centro Infantil Mi Casita","categoria":"Estancias infantiles / CAIPI / CAFI","direccion":"Calle 8","ciudad":"","provincia":"","telefono":"","website":"","osm_type":"node","osm_id":4106361350,"osm_url":"https://www.openstreetmap.org/node/4106361350","fuente":"OpenStreetMap","validada":false,"red_institucional":"pendiente","validacion_inaipi":"pendiente"}},{"type":"Feature","geometry":{"type":"Point","coordinates":[-69.8494587,18.508886]},"properties":{"id":"ESTI-OSM-WAY-414015859","nombre":"Centro Pedagogico Infantil Dios Con Nosotros","categoria":"Estancias infantiles / CAIPI / CAFI","direccion":"Calle Guayubin Olivo","ciudad":"","provincia":"","telefono":"","website":"","osm_type":"way","osm_id":414015859,"osm_url":"https://www.openstreetmap.org/way/414015859","fuente":"OpenStreetMap","validada":false,"red_institucional":"pendiente","validacion_inaipi":"pendiente"}},{"type":"Feature","geometry":{"type":"Point","coordinates":[-70.6782628,19.4567398]},"properties":{"id":"ESTI-OSM-WAY-410321186","nombre":"Chiquilladas","categoria":"Estancias infantiles / CAIPI / CAFI","direccion":"","ciudad":"","provincia":"","telefono":"","website":"","osm_type":"way","osm_id":410321186,"osm_url":"https://www.openstreetmap.org/way/410321186","fuente":"OpenStreetMap","validada":false,"red_institucional":"pendiente","validacion_inaipi":"pendiente"}},{"type":"Feature","geometry":{"type":"Point","coordinates":[-69.8570313,18.487721]},"properties":{"id":"ESTI-OSM-WAY-414261283","nombre":"Chiquitines del Cela","categoria":"Estancias infantiles / CAIPI / CAFI","direccion":"Calle 10 Pedro A. Pérez Cabral 7","ciudad":"","provincia":"","telefono":"","website":"","osm_type":"way","osm_id":414261283,"osm_url":"https://www.openstreetmap.org/way/414261283","fuente":"OpenStreetMap","validada":false,"red_institucional":"pendiente","validacion_inaipi":"pendiente"}},{"type":"Feature","geometry":{"type":"Point","coordinates":[-70.5297919,19.2223639]},"properties":{"id":"ESTI-OSM-WAY-414000657","nombre":"Colegio Eugenio Maria de Hostos","categoria":"Estancias infantiles / CAIPI / CAFI","direccion":"Avenida Garcia Godoy","ciudad":"","provincia":"","telefono":"","website":"","osm_type":"way","osm_id":414000657,"osm_url":"https://www.openstreetmap.org/way/414000657","fuente":"OpenStreetMap","validada":false,"red_institucional":"pendiente","validacion_inaipi":"pendiente"}},{"type":"Feature","geometry":{"type":"Point","coordinates":[-69.8879697,18.4706088]},"properties":{"id":"ESTI-OSM-WAY-406678364","nombre":"Colegio Infantil Caperucita Roja","categoria":"Estancias infantiles / CAIPI / CAFI","direccion":"Calle Padre Billini","ciudad":"","provincia":"","telefono":"","website":"","osm_type":"way","osm_id":406678364,"osm_url":"https://www.openstreetmap.org/way/406678364","fuente":"OpenStreetMap","validada":false,"red_institucional":"pendiente","validacion_inaipi":"pendiente"}},{"type":"Feature","geometry":{"type":"Point","coordinates":[-69.9930001,18.4709191]},"properties":{"id":"ESTI-OSM-WAY-412852343","nombre":"Colegio Pedagógico Dominicano","categoria":"Estancias infantiles / CAIPI / CAFI","direccion":"","ciudad":"","provincia":"","telefono":"","website":"","osm_type":"way","osm_id":412852343,"osm_url":"https://www.openstreetmap.org/way/412852343","fuente":"OpenStreetMap","validada":false,"red_institucional":"pendiente","validacion_inaipi":"pendiente"}},{"type":"Feature","geometry":{"type":"Point","coordinates":[-71.072699,19.5568316]},"properties":{"id":"ESTI-OSM-NODE-4216560091","nombre":"CONANI","categoria":"Estancias infantiles / CAIPI / CAFI","direccion":"Duarte","ciudad":"","provincia":"","telefono":"","website":"","osm_type":"node","osm_id":4216560091,"osm_url":"https://www.openstreetmap.org/node/4216560091","fuente":"OpenStreetMap","validada":false,"red_institucional":"pendiente","validacion_inaipi":"pendiente"}},{"type":"Feature","geometry":{"type":"Point","coordinates":[-69.0400068,18.7735378]},"properties":{"id":"ESTI-OSM-NODE-4854265697","nombre":"Conani","categoria":"Estancias infantiles / CAIPI / CAFI","direccion":"","ciudad":"","provincia":"","telefono":"","website":"","osm_type":"node","osm_id":4854265697,"osm_url":"https://www.openstreetmap.org/node/4854265697","fuente":"OpenStreetMap","validada":false,"red_institucional":"pendiente","validacion_inaipi":"pendiente"}},{"type":"Feature","geometry":{"type":"Point","coordinates":[-70.6848561,19.4255913]},"properties":{"id":"ESTI-OSM-WAY-402904037","nombre":"Conjunto CAID-CAIPI-PARROQUIA","categoria":"Estancias infantiles / CAIPI / CAFI","direccion":"","ciudad":"","provincia":"","telefono":"","website":"","osm_type":"way","osm_id":402904037,"osm_url":"https://www.openstreetmap.org/way/402904037","fuente":"OpenStreetMap","validada":false,"red_institucional":"INAIPI-candidata","validacion_inaipi":"pendiente"}},{"type":"Feature","geometry":{"type":"Point","coordinates":[-70.7026991,19.4617013]},"properties":{"id":"ESTI-OSM-NODE-5406065823","nombre":"cría","categoria":"Estancias infantiles / CAIPI / CAFI","direccion":"","ciudad":"","provincia":"","telefono":"","website":"","osm_type":"node","osm_id":5406065823,"osm_url":"https://www.openstreetmap.org/node/5406065823","fuente":"OpenStreetMap","validada":false,"red_institucional":"pendiente","validacion_inaipi":"pendiente"}},{"type":"Feature","geometry":{"type":"Point","coordinates":[-69.9845827,18.4480207]},"properties":{"id":"ESTI-OSM-NODE-5432011270","nombre":"Daycare","categoria":"Estancias infantiles / CAIPI / CAFI","direccion":"Calle Santa Ana","ciudad":"Santo Domingo Oeste","provincia":"","telefono":"","website":"","osm_type":"node","osm_id":5432011270,"osm_url":"https://www.openstreetmap.org/node/5432011270","fuente":"OpenStreetMap","validada":false,"red_institucional":"pendiente","validacion_inaipi":"pendiente"}},{"type":"Feature","geometry":{"type":"Point","coordinates":[-69.8339616,18.5090796]},"properties":{"id":"ESTI-OSM-NODE-5338944121","nombre":"Dinorah Day Care","categoria":"Estancias infantiles / CAIPI / CAFI","direccion":"","ciudad":"","provincia":"","telefono":"","website":"","osm_type":"node","osm_id":5338944121,"osm_url":"https://www.openstreetmap.org/node/5338944121","fuente":"OpenStreetMap","validada":false,"red_institucional":"pendiente","validacion_inaipi":"pendiente"}},{"type":"Feature","geometry":{"type":"Point","coordinates":[-69.9227757,18.4734565]},"properties":{"id":"ESTI-OSM-WAY-410354207","nombre":"Discovery Center","categoria":"Estancias infantiles / CAIPI / CAFI","direccion":"Calle Andres Avelino Garcia","ciudad":"Santo Domingo","provincia":"","telefono":"","website":"","osm_type":"way","osm_id":410354207,"osm_url":"https://www.openstreetmap.org/way/410354207","fuente":"OpenStreetMap","validada":false,"red_institucional":"pendiente","validacion_inaipi":"pendiente"}},{"type":"Feature","geometry":{"type":"Point","coordinates":[-69.8138657,18.5068356]},"properties":{"id":"ESTI-OSM-NODE-9358544815","nombre":"El Carruser de los niños","categoria":"Estancias infantiles / CAIPI / CAFI","direccion":"Av. Martin Luther King Jr","ciudad":"Santo Domingo Este","provincia":"","telefono":"+1 809 875 1304;+1 809 989 3043","website":"","osm_type":"node","osm_id":9358544815,"osm_url":"https://www.openstreetmap.org/node/9358544815","fuente":"OpenStreetMap","validada":false,"red_institucional":"pendiente","validacion_inaipi":"pendiente"}},{"type":"Feature","geometry":{"type":"Point","coordinates":[-70.702623,19.4863624]},"properties":{"id":"ESTI-OSM-WAY-1190323986","nombre":"Entrada a CAIPI","categoria":"Estancias infantiles / CAIPI / CAFI","direccion":"","ciudad":"","provincia":"","telefono":"","website":"","osm_type":"way","osm_id":1190323986,"osm_url":"https://www.openstreetmap.org/way/1190323986","fuente":"OpenStreetMap","validada":false,"red_institucional":"INAIPI-candidata","validacion_inaipi":"pendiente"}},{"type":"Feature","geometry":{"type":"Point","coordinates":[-70.672164,19.4094076]},"properties":{"id":"ESTI-OSM-WAY-310493965","nombre":"Escuela Ana Mercedez Arias Ortega","categoria":"Estancias infantiles / CAIPI / CAFI","direccion":"Carretera Matanza","ciudad":"","provincia":"","telefono":"","website":"","osm_type":"way","osm_id":310493965,"osm_url":"https://www.openstreetmap.org/way/310493965","fuente":"OpenStreetMap","validada":false,"red_institucional":"pendiente","validacion_inaipi":"pendiente"}},{"type":"Feature","geometry":{"type":"Point","coordinates":[-71.741589,18.0407682]},"properties":{"id":"ESTI-OSM-WAY-1116346449","nombre":"Escuela Estancia Infantil","categoria":"Estancias infantiles / CAIPI / CAFI","direccion":"","ciudad":"","provincia":"","telefono":"","website":"","osm_type":"way","osm_id":1116346449,"osm_url":"https://www.openstreetmap.org/way/1116346449","fuente":"OpenStreetMap","validada":false,"red_institucional":"pendiente","validacion_inaipi":"pendiente"}},{"type":"Feature","geometry":{"type":"Point","coordinates":[-69.0004276,18.4387703]},"properties":{"id":"ESTI-OSM-WAY-516515792","nombre":"Estancia Infantil","categoria":"Estancias infantiles / CAIPI / CAFI","direccion":"","ciudad":"","provincia":"","telefono":"","website":"","osm_type":"way","osm_id":516515792,"osm_url":"https://www.openstreetmap.org/way/516515792","fuente":"OpenStreetMap","validada":false,"red_institucional":"pendiente","validacion_inaipi":"pendiente"}},{"type":"Feature","geometry":{"type":"Point","coordinates":[-70.3309894,18.2792417]},"properties":{"id":"ESTI-OSM-WAY-1231781966","nombre":"Estancia Infantil Cuentos Magicos","categoria":"Estancias infantiles / CAIPI / CAFI","direccion":"Nuestra Señora de Regla","ciudad":"Baní","provincia":"","telefono":"+1 809 738 4160","website":"","osm_type":"way","osm_id":1231781966,"osm_url":"https://www.openstreetmap.org/way/1231781966","fuente":"OpenStreetMap","validada":false,"red_institucional":"pendiente","validacion_inaipi":"pendiente"}},{"type":"Feature","geometry":{"type":"Point","coordinates":[-70.2511535,19.3017658]},"properties":{"id":"ESTI-OSM-NODE-5391525894","nombre":"Estancia Infantil Hermanas Mirabal","categoria":"Estancias infantiles / CAIPI / CAFI","direccion":"","ciudad":"","provincia":"","telefono":"","website":"","osm_type":"node","osm_id":5391525894,"osm_url":"https://www.openstreetmap.org/node/5391525894","fuente":"OpenStreetMap","validada":false,"red_institucional":"pendiente","validacion_inaipi":"pendiente"}},{"type":"Feature","geometry":{"type":"Point","coordinates":[-70.7426731,18.4609387]},"properties":{"id":"ESTI-OSM-WAY-654470142","nombre":"Estancia Infantil La Bombita","categoria":"Estancias infantiles / CAIPI / CAFI","direccion":"","ciudad":"Azua","provincia":"","telefono":"","website":"","osm_type":"way","osm_id":654470142,"osm_url":"https://www.openstreetmap.org/way/654470142","fuente":"OpenStreetMap","validada":false,"red_institucional":"pendiente","validacion_inaipi":"pendiente"}},{"type":"Feature","geometry":{"type":"Point","coordinates":[-70.6866797,19.4201943]},"properties":{"id":"ESTI-OSM-WAY-1039142292","nombre":"Estancia Infantil Las Praderas (En Construccion)","categoria":"Estancias infantiles / CAIPI / CAFI","direccion":"","ciudad":"Santiago","provincia":"","telefono":"","website":"","osm_type":"way","osm_id":1039142292,"osm_url":"https://www.openstreetmap.org/way/1039142292","fuente":"OpenStreetMap","validada":false,"red_institucional":"pendiente","validacion_inaipi":"pendiente"}},{"type":"Feature","geometry":{"type":"Point","coordinates":[-70.095653,18.415822]},"properties":{"id":"ESTI-OSM-WAY-413734643","nombre":"Estancia Infantil Madre Vieja Sur I","categoria":"Estancias infantiles / CAIPI / CAFI","direccion":"Calle G","ciudad":"San Cristóbal","provincia":"","telefono":"","website":"","osm_type":"way","osm_id":413734643,"osm_url":"https://www.openstreetmap.org/way/413734643","fuente":"OpenStreetMap","validada":false,"red_institucional":"pendiente","validacion_inaipi":"pendiente"}},{"type":"Feature","geometry":{"type":"Point","coordinates":[-70.25743,19.2864334]},"properties":{"id":"ESTI-OSM-NODE-5391525895","nombre":"Estancia Infantil San Martin","categoria":"Estancias infantiles / CAIPI / CAFI","direccion":"","ciudad":"","provincia":"","telefono":"","website":"","osm_type":"node","osm_id":5391525895,"osm_url":"https://www.openstreetmap.org/node/5391525895","fuente":"OpenStreetMap","validada":false,"red_institucional":"pendiente","validacion_inaipi":"pendiente"}},{"type":"Feature","geometry":{"type":"Point","coordinates":[-70.2758361,19.3144593]},"properties":{"id":"ESTI-OSM-NODE-4236748974","nombre":"Estancia Infantil vista Del Valle","categoria":"Estancias infantiles / CAIPI / CAFI","direccion":"","ciudad":"","provincia":"","telefono":"","website":"","osm_type":"node","osm_id":4236748974,"osm_url":"https://www.openstreetmap.org/node/4236748974","fuente":"OpenStreetMap","validada":false,"red_institucional":"pendiente","validacion_inaipi":"pendiente"}},{"type":"Feature","geometry":{"type":"Point","coordinates":[-70.4520543,19.0206829]},"properties":{"id":"ESTI-OSM-NODE-1409047271","nombre":"Estancias infantiles / CAIPI / CAFI sin nombre","categoria":"Estancias infantiles / CAIPI / CAFI","direccion":"","ciudad":"","provincia":"","telefono":"","website":"","osm_type":"node","osm_id":1409047271,"osm_url":"https://www.openstreetmap.org/node/1409047271","fuente":"OpenStreetMap","validada":false,"red_institucional":"INAIPI-candidata","validacion_inaipi":"pendiente"}},{"type":"Feature","geometry":{"type":"Point","coordinates":[-69.9085479,18.5304054]},"properties":{"id":"ESTI-OSM-NODE-4106079721","nombre":"Estancias infantiles / CAIPI / CAFI sin nombre","categoria":"Estancias infantiles / CAIPI / CAFI","direccion":"","ciudad":"","provincia":"","telefono":"","website":"","osm_type":"node","osm_id":4106079721,"osm_url":"https://www.openstreetmap.org/node/4106079721","fuente":"OpenStreetMap","validada":false,"red_institucional":"INAIPI-candidata","validacion_inaipi":"pendiente"}},{"type":"Feature","geometry":{"type":"Point","coordinates":[-70.0087108,18.514217]},"properties":{"id":"ESTI-OSM-NODE-4750803524","nombre":"Estancias infantiles / CAIPI / CAFI sin nombre","categoria":"Estancias infantiles / CAIPI / CAFI","direccion":"","ciudad":"","provincia":"","telefono":"","website":"","osm_type":"node","osm_id":4750803524,"osm_url":"https://www.openstreetmap.org/node/4750803524","fuente":"OpenStreetMap","validada":false,"red_institucional":"INAIPI-candidata","validacion_inaipi":"pendiente"}},{"type":"Feature","geometry":{"type":"Point","coordinates":[-69.9884028,18.4592005]},"properties":{"id":"ESTI-OSM-WAY-1246994534","nombre":"Estancias infantiles / CAIPI / CAFI sin nombre","categoria":"Estancias infantiles / CAIPI / CAFI","direccion":"","ciudad":"","provincia":"","telefono":"","website":"","osm_type":"way","osm_id":1246994534,"osm_url":"https://www.openstreetmap.org/way/1246994534","fuente":"OpenStreetMap","validada":false,"red_institucional":"INAIPI-candidata","validacion_inaipi":"pendiente"}},{"type":"Feature","geometry":{"type":"Point","coordinates":[-70.6937428,19.4462797]},"properties":{"id":"ESTI-OSM-WAY-411776453","nombre":"Estancias infantiles / CAIPI / CAFI sin nombre","categoria":"Estancias infantiles / CAIPI / CAFI","direccion":"Calle Luis A. Franco Olavarrieta","ciudad":"Santiago","provincia":"","telefono":"","website":"","osm_type":"way","osm_id":411776453,"osm_url":"https://www.openstreetmap.org/way/411776453","fuente":"OpenStreetMap","validada":false,"red_institucional":"INAIPI-candidata","validacion_inaipi":"pendiente"}},{"type":"Feature","geometry":{"type":"Point","coordinates":[-69.8665506,18.4863768]},"properties":{"id":"ESTI-OSM-WAY-414005830","nombre":"Estancias infantiles / CAIPI / CAFI sin nombre","categoria":"Estancias infantiles / CAIPI / CAFI","direccion":"","ciudad":"","provincia":"","telefono":"","website":"","osm_type":"way","osm_id":414005830,"osm_url":"https://www.openstreetmap.org/way/414005830","fuente":"OpenStreetMap","validada":false,"red_institucional":"INAIPI-candidata","validacion_inaipi":"pendiente"}},{"type":"Feature","geometry":{"type":"Point","coordinates":[-69.7460653,18.5071839]},"properties":{"id":"ESTI-OSM-WAY-777467306","nombre":"Estancias infantiles / CAIPI / CAFI sin nombre","categoria":"Estancias infantiles / CAIPI / CAFI","direccion":"","ciudad":"","provincia":"","telefono":"","website":"","osm_type":"way","osm_id":777467306,"osm_url":"https://www.openstreetmap.org/way/777467306","fuente":"OpenStreetMap","validada":false,"red_institucional":"INAIPI-candidata","validacion_inaipi":"pendiente"}},{"type":"Feature","geometry":{"type":"Point","coordinates":[-70.2995313,18.5283291]},"properties":{"id":"ESTI-OSM-WAY-1551882689","nombre":"Factoria Asociacion Caficultores \"La Esperanza\"","categoria":"Estancias infantiles / CAIPI / CAFI","direccion":"Carretera Cambita Garabitos - Los Cacaos","ciudad":"","provincia":"","telefono":"","website":"","osm_type":"way","osm_id":1551882689,"osm_url":"https://www.openstreetmap.org/way/1551882689","fuente":"OpenStreetMap","validada":false,"red_institucional":"pendiente","validacion_inaipi":"pendiente"}},{"type":"Feature","geometry":{"type":"Point","coordinates":[-69.9018626,18.5536506]},"properties":{"id":"ESTI-OSM-WAY-409568764","nombre":"Guarderia Amor y Paciencia","categoria":"Estancias infantiles / CAIPI / CAFI","direccion":"Calle 2da","ciudad":"","provincia":"","telefono":"","website":"","osm_type":"way","osm_id":409568764,"osm_url":"https://www.openstreetmap.org/way/409568764","fuente":"OpenStreetMap","validada":false,"red_institucional":"pendiente","validacion_inaipi":"pendiente"}},{"type":"Feature","geometry":{"type":"Point","coordinates":[-69.9851879,18.4485583]},"properties":{"id":"ESTI-OSM-NODE-5417417933","nombre":"Guarderia Gricelda","categoria":"Estancias infantiles / CAIPI / CAFI","direccion":"Calle C","ciudad":"Santo Domingo Oeste","provincia":"","telefono":"","website":"","osm_type":"node","osm_id":5417417933,"osm_url":"https://www.openstreetmap.org/node/5417417933","fuente":"OpenStreetMap","validada":false,"red_institucional":"pendiente","validacion_inaipi":"pendiente"}},{"type":"Feature","geometry":{"type":"Point","coordinates":[-69.9202802,18.4996813]},"properties":{"id":"ESTI-OSM-WAY-413448692","nombre":"Guarderia Infantil Divino Niño Jesus","categoria":"Estancias infantiles / CAIPI / CAFI","direccion":"Avenida Nicolás de Ovando","ciudad":"","provincia":"","telefono":"","website":"","osm_type":"way","osm_id":413448692,"osm_url":"https://www.openstreetmap.org/way/413448692","fuente":"OpenStreetMap","validada":false,"red_institucional":"pendiente","validacion_inaipi":"pendiente"}},{"type":"Feature","geometry":{"type":"Point","coordinates":[-69.901486,18.5397728]},"properties":{"id":"ESTI-OSM-WAY-408912303","nombre":"Guarderia Infantil Las Estrellitas del Eden","categoria":"Estancias infantiles / CAIPI / CAFI","direccion":"Manzana 4","ciudad":"","provincia":"","telefono":"","website":"","osm_type":"way","osm_id":408912303,"osm_url":"https://www.openstreetmap.org/way/408912303","fuente":"OpenStreetMap","validada":false,"red_institucional":"pendiente","validacion_inaipi":"pendiente"}},{"type":"Feature","geometry":{"type":"Point","coordinates":[-69.8192144,18.5072423]},"properties":{"id":"ESTI-OSM-WAY-1000545128","nombre":"Guarderia Invivienda","categoria":"Estancias infantiles / CAIPI / CAFI","direccion":"Calle Concepción Bona","ciudad":"Santo Domingo Este Invivienda","provincia":"","telefono":"+809 231 1317","website":"","osm_type":"way","osm_id":1000545128,"osm_url":"https://www.openstreetmap.org/way/1000545128","fuente":"OpenStreetMap","validada":false,"red_institucional":"pendiente","validacion_inaipi":"pendiente"}},{"type":"Feature","geometry":{"type":"Point","coordinates":[-69.9771188,18.4709595]},"properties":{"id":"ESTI-OSM-NODE-5872443485","nombre":"Guarderia NeNe","categoria":"Estancias infantiles / CAIPI / CAFI","direccion":"Calle San Luis 5","ciudad":"","provincia":"","telefono":"","website":"","osm_type":"node","osm_id":5872443485,"osm_url":"https://www.openstreetmap.org/node/5872443485","fuente":"OpenStreetMap","validada":false,"red_institucional":"pendiente","validacion_inaipi":"pendiente"}},{"type":"Feature","geometry":{"type":"Point","coordinates":[-69.981984,18.4764782]},"properties":{"id":"ESTI-OSM-WAY-411443522","nombre":"Guarderia y Sala de Tarea","categoria":"Estancias infantiles / CAIPI / CAFI","direccion":"","ciudad":"","provincia":"","telefono":"","website":"","osm_type":"way","osm_id":411443522,"osm_url":"https://www.openstreetmap.org/way/411443522","fuente":"OpenStreetMap","validada":false,"red_institucional":"pendiente","validacion_inaipi":"pendiente"}},{"type":"Feature","geometry":{"type":"Point","coordinates":[-70.003594,18.472092]},"properties":{"id":"ESTI-OSM-NODE-4137702334","nombre":"Guardería Infantil","categoria":"Estancias infantiles / CAIPI / CAFI","direccion":"","ciudad":"","provincia":"","telefono":"","website":"","osm_type":"node","osm_id":4137702334,"osm_url":"https://www.openstreetmap.org/node/4137702334","fuente":"OpenStreetMap","validada":false,"red_institucional":"pendiente","validacion_inaipi":"pendiente"}},{"type":"Feature","geometry":{"type":"Point","coordinates":[-69.8868738,18.5164841]},"properties":{"id":"ESTI-OSM-WAY-1366663617","nombre":"Guardería Infantil, Damas Diplomáticas","categoria":"Estancias infantiles / CAIPI / CAFI","direccion":"","ciudad":"","provincia":"","telefono":"","website":"","osm_type":"way","osm_id":1366663617,"osm_url":"https://www.openstreetmap.org/way/1366663617","fuente":"OpenStreetMap","validada":false,"red_institucional":"pendiente","validacion_inaipi":"pendiente"}},{"type":"Feature","geometry":{"type":"Point","coordinates":[-69.9149757,18.4963849]},"properties":{"id":"ESTI-OSM-WAY-408316193","nombre":"Hogar de Bebes \"Niño Jesus\"","categoria":"Estancias infantiles / CAIPI / CAFI","direccion":"Avenida Máximo Gómez","ciudad":"","provincia":"","telefono":"","website":"","osm_type":"way","osm_id":408316193,"osm_url":"https://www.openstreetmap.org/way/408316193","fuente":"OpenStreetMap","validada":false,"red_institucional":"pendiente","validacion_inaipi":"pendiente"}},{"type":"Feature","geometry":{"type":"Point","coordinates":[-68.9685969,18.440801]},"properties":{"id":"ESTI-OSM-WAY-312079507","nombre":"Hogar del Niño - Guardería","categoria":"Estancias infantiles / CAIPI / CAFI","direccion":"","ciudad":"","provincia":"","telefono":"","website":"","osm_type":"way","osm_id":312079507,"osm_url":"https://www.openstreetmap.org/way/312079507","fuente":"OpenStreetMap","validada":false,"red_institucional":"pendiente","validacion_inaipi":"pendiente"}},{"type":"Feature","geometry":{"type":"Point","coordinates":[-69.9220107,18.4645027]},"properties":{"id":"ESTI-OSM-NODE-10906827417","nombre":"INAIPI","categoria":"Estancias infantiles / CAIPI / CAFI","direccion":"Avenida Simón Bolívar 61","ciudad":"Santo Domingo","provincia":"","telefono":"+18095455147","website":"https://inaipi.gob.do/","osm_type":"node","osm_id":10906827417,"osm_url":"https://www.openstreetmap.org/node/10906827417","fuente":"OpenStreetMap","validada":false,"red_institucional":"pendiente","validacion_inaipi":"pendiente"}},{"type":"Feature","geometry":{"type":"Point","coordinates":[-69.9351442,18.4890436]},"properties":{"id":"ESTI-OSM-NODE-4149910750","nombre":"Jardin Creativo","categoria":"Estancias infantiles / CAIPI / CAFI","direccion":"Calle Juan T Mejía y Cotes","ciudad":"","provincia":"","telefono":"","website":"","osm_type":"node","osm_id":4149910750,"osm_url":"https://www.openstreetmap.org/node/4149910750","fuente":"OpenStreetMap","validada":false,"red_institucional":"pendiente","validacion_inaipi":"pendiente"}},{"type":"Feature","geometry":{"type":"Point","coordinates":[-70.6571665,19.461802]},"properties":{"id":"ESTI-OSM-WAY-408349619","nombre":"Jardín Infantil Tia Mima","categoria":"Estancias infantiles / CAIPI / CAFI","direccion":"Avenida Penetración","ciudad":"Santiago","provincia":"","telefono":"","website":"","osm_type":"way","osm_id":408349619,"osm_url":"https://www.openstreetmap.org/way/408349619","fuente":"OpenStreetMap","validada":false,"red_institucional":"pendiente","validacion_inaipi":"pendiente"}},{"type":"Feature","geometry":{"type":"Point","coordinates":[-69.1907948,18.434605]},"properties":{"id":"ESTI-OSM-NODE-12505414205","nombre":"Kids Club","categoria":"Estancias infantiles / CAIPI / CAFI","direccion":"","ciudad":"","provincia":"","telefono":"","website":"","osm_type":"node","osm_id":12505414205,"osm_url":"https://www.openstreetmap.org/node/12505414205","fuente":"OpenStreetMap","validada":false,"red_institucional":"pendiente","validacion_inaipi":"pendiente"}},{"type":"Feature","geometry":{"type":"Point","coordinates":[-68.4605981,18.7268892]},"properties":{"id":"ESTI-OSM-NODE-11895271835","nombre":"Kids Zone","categoria":"Estancias infantiles / CAIPI / CAFI","direccion":"","ciudad":"","provincia":"","telefono":"","website":"","osm_type":"node","osm_id":11895271835,"osm_url":"https://www.openstreetmap.org/node/11895271835","fuente":"OpenStreetMap","validada":false,"red_institucional":"pendiente","validacion_inaipi":"pendiente"}},{"type":"Feature","geometry":{"type":"Point","coordinates":[-68.9354529,18.4161258]},"properties":{"id":"ESTI-OSM-WAY-223416071","nombre":"Kids Zone 'Day Care'","categoria":"Estancias infantiles / CAIPI / CAFI","direccion":"","ciudad":"","provincia":"","telefono":"","website":"","osm_type":"way","osm_id":223416071,"osm_url":"https://www.openstreetmap.org/way/223416071","fuente":"OpenStreetMap","validada":false,"red_institucional":"pendiente","validacion_inaipi":"pendiente"}},{"type":"Feature","geometry":{"type":"Point","coordinates":[-69.8613097,18.5157246]},"properties":{"id":"ESTI-OSM-NODE-4514714492","nombre":"Las Rozas","categoria":"Estancias infantiles / CAIPI / CAFI","direccion":"","ciudad":"","provincia":"","telefono":"","website":"","osm_type":"node","osm_id":4514714492,"osm_url":"https://www.openstreetmap.org/node/4514714492","fuente":"OpenStreetMap","validada":false,"red_institucional":"pendiente","validacion_inaipi":"pendiente"}},{"type":"Feature","geometry":{"type":"Point","coordinates":[-69.9647993,18.4982329]},"properties":{"id":"ESTI-OSM-WAY-409875750","nombre":"Los Reyes del Jardin","categoria":"Estancias infantiles / CAIPI / CAFI","direccion":"Calle A","ciudad":"Santo Domingo","provincia":"","telefono":"","website":"","osm_type":"way","osm_id":409875750,"osm_url":"https://www.openstreetmap.org/way/409875750","fuente":"OpenStreetMap","validada":false,"red_institucional":"pendiente","validacion_inaipi":"pendiente"}},{"type":"Feature","geometry":{"type":"Point","coordinates":[-69.8579582,18.4975711]},"properties":{"id":"ESTI-OSM-NODE-4665498990","nombre":"Parvulario","categoria":"Estancias infantiles / CAIPI / CAFI","direccion":"","ciudad":"","provincia":"","telefono":"","website":"","osm_type":"node","osm_id":4665498990,"osm_url":"https://www.openstreetmap.org/node/4665498990","fuente":"OpenStreetMap","validada":false,"red_institucional":"pendiente","validacion_inaipi":"pendiente"}},{"type":"Feature","geometry":{"type":"Point","coordinates":[-70.697759,19.4592306]},"properties":{"id":"ESTI-OSM-WAY-409858078","nombre":"Picabu Daycare","categoria":"Estancias infantiles / CAIPI / CAFI","direccion":"","ciudad":"","provincia":"","telefono":"","website":"","osm_type":"way","osm_id":409858078,"osm_url":"https://www.openstreetmap.org/way/409858078","fuente":"OpenStreetMap","validada":false,"red_institucional":"pendiente","validacion_inaipi":"pendiente"}},{"type":"Feature","geometry":{"type":"Point","coordinates":[-70.6945898,19.4613411]},"properties":{"id":"ESTI-OSM-WAY-409848328","nombre":"Pre-escolar Soles","categoria":"Estancias infantiles / CAIPI / CAFI","direccion":"","ciudad":"","provincia":"","telefono":"+1 809 724 1286","website":"http://preescolarsoles.com/","osm_type":"way","osm_id":409848328,"osm_url":"https://www.openstreetmap.org/way/409848328","fuente":"OpenStreetMap","validada":false,"red_institucional":"pendiente","validacion_inaipi":"pendiente"}},{"type":"Feature","geometry":{"type":"Point","coordinates":[-69.938442,18.4908831]},"properties":{"id":"ESTI-OSM-NODE-11257630856","nombre":"Primi Passi","categoria":"Estancias infantiles / CAIPI / CAFI","direccion":"","ciudad":"","provincia":"","telefono":"","website":"https://www.primipassi.edu.do/","osm_type":"node","osm_id":11257630856,"osm_url":"https://www.openstreetmap.org/node/11257630856","fuente":"OpenStreetMap","validada":false,"red_institucional":"pendiente","validacion_inaipi":"pendiente"}},{"type":"Feature","geometry":{"type":"Point","coordinates":[-68.4234076,18.678739]},"properties":{"id":"ESTI-OSM-NODE-4541575292","nombre":"S.p.j","categoria":"Estancias infantiles / CAIPI / CAFI","direccion":"avenida alemana","ciudad":"","provincia":"","telefono":"8097778746","website":"http://googleo.com","osm_type":"node","osm_id":4541575292,"osm_url":"https://www.openstreetmap.org/node/4541575292","fuente":"OpenStreetMap","validada":false,"red_institucional":"pendiente","validacion_inaipi":"pendiente"}},{"type":"Feature","geometry":{"type":"Point","coordinates":[-68.4519169,18.7156065]},"properties":{"id":"ESTI-OSM-WAY-1058940904","nombre":"Star Camp","categoria":"Estancias infantiles / CAIPI / CAFI","direccion":"","ciudad":"","provincia":"","telefono":"","website":"","osm_type":"way","osm_id":1058940904,"osm_url":"https://www.openstreetmap.org/way/1058940904","fuente":"OpenStreetMap","validada":false,"red_institucional":"pendiente","validacion_inaipi":"pendiente"}},{"type":"Feature","geometry":{"type":"Point","coordinates":[-70.6801797,19.455144]},"properties":{"id":"ESTI-OSM-WAY-410357860","nombre":"TAS","categoria":"Estancias infantiles / CAIPI / CAFI","direccion":"Calle Caonabo Almonte","ciudad":"Santiago","provincia":"","telefono":"","website":"","osm_type":"way","osm_id":410357860,"osm_url":"https://www.openstreetmap.org/way/410357860","fuente":"OpenStreetMap","validada":false,"red_institucional":"pendiente","validacion_inaipi":"pendiente"}},{"type":"Feature","geometry":{"type":"Point","coordinates":[-69.86867,18.4874653]},"properties":{"id":"ESTI-OSM-WAY-414265745","nombre":"Trencitos School Kids Care","categoria":"Estancias infantiles / CAIPI / CAFI","direccion":"","ciudad":"","provincia":"","telefono":"","website":"","osm_type":"way","osm_id":414265745,"osm_url":"https://www.openstreetmap.org/way/414265745","fuente":"OpenStreetMap","validada":false,"red_institucional":"pendiente","validacion_inaipi":"pendiente"}},{"type":"Feature","geometry":{"type":"Point","coordinates":[-69.7972787,18.4956367]},"properties":{"id":"ESTI-OSM-NODE-9733547581","nombre":"Yo Te Cuido Guardería","categoria":"Estancias infantiles / CAIPI / CAFI","direccion":"Calle Principal Oeste","ciudad":"Santo Domingo Este","provincia":"","telefono":"","website":"","osm_type":"node","osm_id":9733547581,"osm_url":"https://www.openstreetmap.org/node/9733547581","fuente":"OpenStreetMap","validada":false,"red_institucional":"pendiente","validacion_inaipi":"pendiente"}}]}