{"type":"FeatureCollection","name":"organos_extrapoder_rd_osm","attribution":"© OpenStreetMap contributors, ODbL 1.0","generated_at":"2026-09-18T16:46:15.991053Z","features":[{"type":"Feature","geometry":{"type":"Point","coordinates":[-69.9061985,18.4731416]},"properties":{"id":"EXT-OSM-WAY-174007947","nombre":"Banco Central de la República Dominicana","categoria":"Órganos extrapoder / constitucionales autónomos","direccion":"","ciudad":"","provincia":"","telefono":"","website":"","osm_type":"way","osm_id":174007947,"osm_url":"https://www.openstreetmap.org/way/174007947","fuente":"OpenStreetMap","validada":false,"sede_principal_validada":false,"validacion_institucional":"pendiente","clasificacion_juridica":"candidato_extrapoder"}},{"type":"Feature","geometry":{"type":"Point","coordinates":[-69.9245927,18.4694134]},"properties":{"id":"EXT-OSM-NODE-4121472310","nombre":"Defensor del Pueblo","categoria":"Órganos extrapoder / constitucionales autónomos","direccion":"","ciudad":"","provincia":"","telefono":"","website":"","osm_type":"node","osm_id":4121472310,"osm_url":"https://www.openstreetmap.org/node/4121472310","fuente":"OpenStreetMap","validada":false,"sede_principal_validada":false,"validacion_institucional":"pendiente","clasificacion_juridica":"candidato_extrapoder"}},{"type":"Feature","geometry":{"type":"Point","coordinates":[-69.9246364,18.4695154]},"properties":{"id":"EXT-OSM-NODE-4289707989","nombre":"Defensor del Pueblo","categoria":"Órganos extrapoder / constitucionales autónomos","direccion":"","ciudad":"","provincia":"","telefono":"8093814777","website":"https://defensordelpueblo.gob.do/","osm_type":"node","osm_id":4289707989,"osm_url":"https://www.openstreetmap.org/node/4289707989","fuente":"OpenStreetMap","validada":false,"sede_principal_validada":false,"validacion_institucional":"pendiente","clasificacion_juridica":"candidato_extrapoder"}},{"type":"Feature","geometry":{"type":"Point","coordinates":[-69.9763752,18.4492612]},"properties":{"id":"EXT-OSM-NODE-12950476472","nombre":"Junta Central Electoral","categoria":"Órganos extrapoder / constitucionales autónomos","direccion":"Prolongación Avenida 27 de Febrero","ciudad":"Santo Domingo","provincia":"","telefono":"+1-809-539-5419","website":"https://jce.gob.do","osm_type":"node","osm_id":12950476472,"osm_url":"https://www.openstreetmap.org/node/12950476472","fuente":"OpenStreetMap","validada":false,"sede_principal_validada":false,"validacion_institucional":"pendiente","clasificacion_juridica":"candidato_extrapoder"}},{"type":"Feature","geometry":{"type":"Point","coordinates":[-70.0185079,18.5252128]},"properties":{"id":"EXT-OSM-NODE-5196699421","nombre":"Junta Central Electoral","categoria":"Órganos extrapoder / constitucionales autónomos","direccion":"","ciudad":"","provincia":"","telefono":"","website":"","osm_type":"node","osm_id":5196699421,"osm_url":"https://www.openstreetmap.org/node/5196699421","fuente":"OpenStreetMap","validada":false,"sede_principal_validada":false,"validacion_institucional":"pendiente","clasificacion_juridica":"candidato_extrapoder"}},{"type":"Feature","geometry":{"type":"Point","coordinates":[-69.9763233,18.449229]},"properties":{"id":"EXT-OSM-WAY-233230497","nombre":"Junta Central Electoral","categoria":"Órganos extrapoder / constitucionales autónomos","direccion":"","ciudad":"","provincia":"","telefono":"","website":"","osm_type":"way","osm_id":233230497,"osm_url":"https://www.openstreetmap.org/way/233230497","fuente":"OpenStreetMap","validada":false,"sede_principal_validada":false,"validacion_institucional":"pendiente","clasificacion_juridica":"candidato_extrapoder"}},{"type":"Feature","geometry":{"type":"Point","coordinates":[-69.9760253,18.4509957]},"properties":{"id":"EXT-OSM-WAY-397644495","nombre":"Tribunal Constitucional","categoria":"Órganos extrapoder / constitucionales autónomos","direccion":"","ciudad":"","provincia":"","telefono":"","website":"","osm_type":"way","osm_id":397644495,"osm_url":"https://www.openstreetmap.org/way/397644495","fuente":"OpenStreetMap","validada":false,"sede_principal_validada":false,"validacion_institucional":"pendiente","clasificacion_juridica":"candidato_extrapoder"}},{"type":"Feature","geometry":{"type":"Point","coordinates":[-69.9257936,18.447408]},"properties":{"id":"EXT-OSM-WAY-412075617","nombre":"Tribunal Superior Electoral","categoria":"Órganos extrapoder / constitucionales autónomos","direccion":"Avenida Jiménez Moya","ciudad":"","provincia":"","telefono":"","website":"","osm_type":"way","osm_id":412075617,"osm_url":"https://www.openstreetmap.org/way/412075617","fuente":"OpenStreetMap","validada":false,"sede_principal_validada":false,"validacion_institucional":"pendiente","clasificacion_juridica":"candidato_extrapoder"}}]}