{"type":"FeatureCollection","name":"sedes_poderes_estado_rd_osm","attribution":"© OpenStreetMap contributors, ODbL 1.0","generated_at":"2026-09-18T16:46:15.991053Z","features":[{"type":"Feature","geometry":{"type":"Point","coordinates":[-69.8978027,18.4745677]},"properties":{"id":"POD-OSM-RELATION-4049320","nombre":"Palacio Nacional","categoria":"Sedes principales de los poderes del Estado","direccion":"Calle Moisés García","ciudad":"Santo Domingo","provincia":"","telefono":"","website":"","osm_type":"relation","osm_id":4049320,"osm_url":"https://www.openstreetmap.org/relation/4049320","fuente":"OpenStreetMap","validada":false,"sede_principal_validada":false,"validacion_institucional":"pendiente"}},{"type":"Feature","geometry":{"type":"Point","coordinates":[-69.9246679,18.4480329]},"properties":{"id":"POD-OSM-WAY-222940422","nombre":"Suprema Corte de Justicia","categoria":"Sedes principales de los poderes del Estado","direccion":"Av. Enrique Jiménez Moya, esquina Juan de Dios Ventura Simó","ciudad":"Santo Domingo","provincia":"","telefono":"809-533-3191","website":"https://poderjudicial.gob.do/","osm_type":"way","osm_id":222940422,"osm_url":"https://www.openstreetmap.org/way/222940422","fuente":"OpenStreetMap","validada":false,"sede_principal_validada":false,"validacion_institucional":"pendiente"}}]}