{"type":"FeatureCollection","name":"universidades_rd_osm","attribution":"© OpenStreetMap contributors, ODbL 1.0","generated_at":"2026-09-18T16:46:15.991053Z","features":[{"type":"Feature","geometry":{"type":"Point","coordinates":[-69.8745676,18.467582]},"properties":{"id":"UNI-OSM-WAY-205359320","nombre":"Academia Naval VA César de Windt Lavandier","categoria":"Universidades","direccion":"Avenida España","ciudad":"","provincia":"","telefono":"","website":"","osm_type":"way","osm_id":205359320,"osm_url":"https://www.openstreetmap.org/way/205359320","fuente":"OpenStreetMap","validada":false,"reconocida_mescyt":"pendiente"}},{"type":"Feature","geometry":{"type":"Point","coordinates":[-69.6704725,18.4152877]},"properties":{"id":"UNI-OSM-WAY-375298201","nombre":"ASCA","categoria":"Universidades","direccion":"prolongación Rura 66","ciudad":"Boca Chica, Cabo Caucedo","provincia":"","telefono":"","website":"","osm_type":"way","osm_id":375298201,"osm_url":"https://www.openstreetmap.org/way/375298201","fuente":"OpenStreetMap","validada":false,"reconocida_mescyt":"pendiente"}},{"type":"Feature","geometry":{"type":"Point","coordinates":[-71.219469,18.8028327]},"properties":{"id":"UNI-OSM-WAY-330603545","nombre":"Centro Universitario UASD","categoria":"Universidades","direccion":"","ciudad":"","provincia":"","telefono":"","website":"","osm_type":"way","osm_id":330603545,"osm_url":"https://www.openstreetmap.org/way/330603545","fuente":"OpenStreetMap","validada":false,"reconocida_mescyt":"pendiente"}},{"type":"Feature","geometry":{"type":"Point","coordinates":[-69.6722807,18.4158979]},"properties":{"id":"UNI-OSM-WAY-375240020","nombre":"CESAC","categoria":"Universidades","direccion":"","ciudad":"","provincia":"","telefono":"","website":"","osm_type":"way","osm_id":375240020,"osm_url":"https://www.openstreetmap.org/way/375240020","fuente":"OpenStreetMap","validada":false,"reconocida_mescyt":"pendiente"}},{"type":"Feature","geometry":{"type":"Point","coordinates":[-70.7025232,19.4498168]},"properties":{"id":"UNI-OSM-WAY-408962794","nombre":"Edificio Ercilia Pepín de la Universidad Autónoma de Santo Domingo","categoria":"Universidades","direccion":"Calle 16 de Agosto","ciudad":"Santiago de los Caballeros","provincia":"","telefono":"","website":"","osm_type":"way","osm_id":408962794,"osm_url":"https://www.openstreetmap.org/way/408962794","fuente":"OpenStreetMap","validada":false,"reconocida_mescyt":"pendiente"}},{"type":"Feature","geometry":{"type":"Point","coordinates":[-70.6220498,19.438544]},"properties":{"id":"UNI-OSM-NODE-2791837300","nombre":"Escuela Normal Napoleón Núñez Molina","categoria":"Universidades","direccion":"","ciudad":"","provincia":"","telefono":"","website":"","osm_type":"node","osm_id":2791837300,"osm_url":"https://www.openstreetmap.org/node/2791837300","fuente":"OpenStreetMap","validada":false,"reconocida_mescyt":"pendiente"}},{"type":"Feature","geometry":{"type":"Point","coordinates":[-69.8276115,18.5064733]},"properties":{"id":"UNI-OSM-NODE-12569840950","nombre":"Facultad de Humanidades: Escuela de Idiomas UASD","categoria":"Universidades","direccion":"Avenida Charles de Gaulle 43","ciudad":"Santo Domingo Este","provincia":"","telefono":"","website":"https://uasd.edu.do/facultad-humanidades/escuelas/escuela-de-idiomas/","osm_type":"node","osm_id":12569840950,"osm_url":"https://www.openstreetmap.org/node/12569840950","fuente":"OpenStreetMap","validada":false,"reconocida_mescyt":"pendiente"}},{"type":"Feature","geometry":{"type":"Point","coordinates":[-70.7060355,19.48192]},"properties":{"id":"UNI-OSM-WAY-349862733","nombre":"INFOTEP","categoria":"Universidades","direccion":"","ciudad":"","provincia":"","telefono":"","website":"","osm_type":"way","osm_id":349862733,"osm_url":"https://www.openstreetmap.org/way/349862733","fuente":"OpenStreetMap","validada":false,"reconocida_mescyt":"pendiente"}},{"type":"Feature","geometry":{"type":"Point","coordinates":[-70.112142,18.4104748]},"properties":{"id":"UNI-OSM-WAY-414288964","nombre":"Instituto Politécnico Loyola","categoria":"Universidades","direccion":"","ciudad":"","provincia":"","telefono":"","website":"","osm_type":"way","osm_id":414288964,"osm_url":"https://www.openstreetmap.org/way/414288964","fuente":"OpenStreetMap","validada":false,"reconocida_mescyt":"pendiente"}},{"type":"Feature","geometry":{"type":"Point","coordinates":[-70.1177715,18.4119743]},"properties":{"id":"UNI-OSM-NODE-2444562020","nombre":"Instituto Preparatorio de Menores","categoria":"Universidades","direccion":"","ciudad":"","provincia":"","telefono":"","website":"","osm_type":"node","osm_id":2444562020,"osm_url":"https://www.openstreetmap.org/node/2444562020","fuente":"OpenStreetMap","validada":false,"reconocida_mescyt":"pendiente"}},{"type":"Feature","geometry":{"type":"Point","coordinates":[-69.6624096,18.4511806]},"properties":{"id":"UNI-OSM-WAY-410066317","nombre":"Instituto Tecnológico de Las Américas","categoria":"Universidades","direccion":"Avenida Panamericana","ciudad":"André","provincia":"","telefono":"","website":"","osm_type":"way","osm_id":410066317,"osm_url":"https://www.openstreetmap.org/way/410066317","fuente":"OpenStreetMap","validada":false,"reconocida_mescyt":"pendiente"}},{"type":"Feature","geometry":{"type":"Point","coordinates":[-69.9621974,18.4876631]},"properties":{"id":"UNI-OSM-WAY-30087660","nombre":"Instituto Tecnológico de Santo Domingo","categoria":"Universidades","direccion":"","ciudad":"","provincia":"","telefono":"","website":"","osm_type":"way","osm_id":30087660,"osm_url":"https://www.openstreetmap.org/way/30087660","fuente":"OpenStreetMap","validada":false,"reconocida_mescyt":"pendiente"}},{"type":"Feature","geometry":{"type":"Point","coordinates":[-69.9314838,18.4493375]},"properties":{"id":"UNI-OSM-NODE-4602157889","nombre":"O&M universidad","categoria":"Universidades","direccion":"","ciudad":"","provincia":"","telefono":"","website":"","osm_type":"node","osm_id":4602157889,"osm_url":"https://www.openstreetmap.org/node/4602157889","fuente":"OpenStreetMap","validada":false,"reconocida_mescyt":"pendiente"}},{"type":"Feature","geometry":{"type":"Point","coordinates":[-69.9321019,18.4491808]},"properties":{"id":"UNI-OSM-NODE-5973194762","nombre":"O&M universidad","categoria":"Universidades","direccion":"Calle Ramon Bienvenido Diaz","ciudad":"Santo Domingo","provincia":"","telefono":"","website":"","osm_type":"node","osm_id":5973194762,"osm_url":"https://www.openstreetmap.org/node/5973194762","fuente":"OpenStreetMap","validada":false,"reconocida_mescyt":"pendiente"}},{"type":"Feature","geometry":{"type":"Point","coordinates":[-70.0002521,18.4854923]},"properties":{"id":"UNI-OSM-NODE-5263855908","nombre":"OyM","categoria":"Universidades","direccion":"Prolong Avenida 27 De Febrero","ciudad":"","provincia":"","telefono":"","website":"","osm_type":"node","osm_id":5263855908,"osm_url":"https://www.openstreetmap.org/node/5263855908","fuente":"OpenStreetMap","validada":false,"reconocida_mescyt":"pendiente"}},{"type":"Feature","geometry":{"type":"Point","coordinates":[-69.9160958,18.4715583]},"properties":{"id":"UNI-OSM-NODE-14147412320","nombre":"Parqueo Universidad APEC","categoria":"Universidades","direccion":"","ciudad":"","provincia":"","telefono":"","website":"","osm_type":"node","osm_id":14147412320,"osm_url":"https://www.openstreetmap.org/node/14147412320","fuente":"OpenStreetMap","validada":false,"reconocida_mescyt":"pendiente"}},{"type":"Feature","geometry":{"type":"Point","coordinates":[-70.6826187,19.4435205]},"properties":{"id":"UNI-OSM-RELATION-16153576","nombre":"Pontificia Universidad Católica Madre y Maestra","categoria":"Universidades","direccion":"Avenida Pontificia Universidad Católica","ciudad":"Santiago de los Caballeros","provincia":"","telefono":"809-580-1962","website":"","osm_type":"relation","osm_id":16153576,"osm_url":"https://www.openstreetmap.org/relation/16153576","fuente":"OpenStreetMap","validada":false,"reconocida_mescyt":"pendiente"}},{"type":"Feature","geometry":{"type":"Point","coordinates":[-69.9300612,18.4625366]},"properties":{"id":"UNI-OSM-WAY-412138350","nombre":"Pontificia Universidad Católica Madre y Maestra","categoria":"Universidades","direccion":"","ciudad":"","provincia":"","telefono":"","website":"","osm_type":"way","osm_id":412138350,"osm_url":"https://www.openstreetmap.org/way/412138350","fuente":"OpenStreetMap","validada":false,"reconocida_mescyt":"pendiente"}},{"type":"Feature","geometry":{"type":"Point","coordinates":[-69.9301751,18.4616715]},"properties":{"id":"UNI-OSM-WAY-333724776","nombre":"Pontificia Universidad Católica Madre y Maestra (Posgrado)","categoria":"Universidades","direccion":"Avenida Simón Bolívar","ciudad":"Santo Domingo","provincia":"","telefono":"","website":"","osm_type":"way","osm_id":333724776,"osm_url":"https://www.openstreetmap.org/way/333724776","fuente":"OpenStreetMap","validada":false,"reconocida_mescyt":"pendiente"}},{"type":"Feature","geometry":{"type":"Point","coordinates":[-69.929694,18.463491]},"properties":{"id":"UNI-OSM-WAY-329206504","nombre":"Pontificia Universidad Católica Madre y Maestra (PUCMM)","categoria":"Universidades","direccion":"","ciudad":"","provincia":"","telefono":"","website":"","osm_type":"way","osm_id":329206504,"osm_url":"https://www.openstreetmap.org/way/329206504","fuente":"OpenStreetMap","validada":false,"reconocida_mescyt":"pendiente"}},{"type":"Feature","geometry":{"type":"Point","coordinates":[-69.8472073,18.5154588]},"properties":{"id":"UNI-OSM-WAY-224239757","nombre":"UAPA Universidad Abierta Para Adultos","categoria":"Universidades","direccion":"","ciudad":"","provincia":"","telefono":"","website":"","osm_type":"way","osm_id":224239757,"osm_url":"https://www.openstreetmap.org/way/224239757","fuente":"OpenStreetMap","validada":false,"reconocida_mescyt":"pendiente"}},{"type":"Feature","geometry":{"type":"Point","coordinates":[-69.8383852,18.5168053]},"properties":{"id":"UNI-OSM-WAY-412135631","nombre":"UASD","categoria":"Universidades","direccion":"Carretera Mella","ciudad":"Santo Domingo Este","provincia":"","telefono":"","website":"","osm_type":"way","osm_id":412135631,"osm_url":"https://www.openstreetmap.org/way/412135631","fuente":"OpenStreetMap","validada":false,"reconocida_mescyt":"pendiente"}},{"type":"Feature","geometry":{"type":"Point","coordinates":[-69.8519184,19.3723629]},"properties":{"id":"UNI-OSM-NODE-1864820933","nombre":"UASD Nagua","categoria":"Universidades","direccion":"","ciudad":"","provincia":"","telefono":"+1-809-584-2743","website":"","osm_type":"node","osm_id":1864820933,"osm_url":"https://www.openstreetmap.org/node/1864820933","fuente":"OpenStreetMap","validada":false,"reconocida_mescyt":"pendiente"}},{"type":"Feature","geometry":{"type":"Point","coordinates":[-71.2192925,18.8037555]},"properties":{"id":"UNI-OSM-NODE-13248562786","nombre":"UASD San Juan","categoria":"Universidades","direccion":"Avenida Independencia, Ciudad Universitaria","ciudad":"San Juan de la Maguana","provincia":"","telefono":"","website":"","osm_type":"node","osm_id":13248562786,"osm_url":"https://www.openstreetmap.org/node/13248562786","fuente":"OpenStreetMap","validada":false,"reconocida_mescyt":"pendiente"}},{"type":"Feature","geometry":{"type":"Point","coordinates":[-69.2558878,18.762817]},"properties":{"id":"UNI-OSM-WAY-550917619","nombre":"UASD-Hato Mator","categoria":"Universidades","direccion":"Mercedes","ciudad":"Hato Mayor","provincia":"","telefono":"","website":"","osm_type":"way","osm_id":550917619,"osm_url":"https://www.openstreetmap.org/way/550917619","fuente":"OpenStreetMap","validada":false,"reconocida_mescyt":"pendiente"}},{"type":"Feature","geometry":{"type":"Point","coordinates":[-69.0039838,18.4362081]},"properties":{"id":"UNI-OSM-WAY-1031859055","nombre":"Ufhec","categoria":"Universidades","direccion":"","ciudad":"","provincia":"","telefono":"","website":"","osm_type":"way","osm_id":1031859055,"osm_url":"https://www.openstreetmap.org/way/1031859055","fuente":"OpenStreetMap","validada":false,"reconocida_mescyt":"pendiente"}},{"type":"Feature","geometry":{"type":"Point","coordinates":[-69.9103561,18.4791026]},"properties":{"id":"UNI-OSM-WAY-328193763","nombre":"UNEV","categoria":"Universidades","direccion":"","ciudad":"","provincia":"","telefono":"","website":"","osm_type":"way","osm_id":328193763,"osm_url":"https://www.openstreetmap.org/way/328193763","fuente":"OpenStreetMap","validada":false,"reconocida_mescyt":"pendiente"}},{"type":"Feature","geometry":{"type":"Point","coordinates":[-70.5287115,19.223173]},"properties":{"id":"UNI-OSM-NODE-4131724294","nombre":"Unidad Postgrado UNPHU","categoria":"Universidades","direccion":"Calle Juana Saltitopa","ciudad":"","provincia":"","telefono":"","website":"","osm_type":"node","osm_id":4131724294,"osm_url":"https://www.openstreetmap.org/node/4131724294","fuente":"OpenStreetMap","validada":false,"reconocida_mescyt":"pendiente"}},{"type":"Feature","geometry":{"type":"Point","coordinates":[-71.7334158,18.031109]},"properties":{"id":"UNI-OSM-NODE-13696439467","nombre":"UNIVERSIDAD  UCATEBA","categoria":"Universidades","direccion":"","ciudad":"","provincia":"","telefono":"","website":"","osm_type":"node","osm_id":13696439467,"osm_url":"https://www.openstreetmap.org/node/13696439467","fuente":"OpenStreetMap","validada":false,"reconocida_mescyt":"pendiente"}},{"type":"Feature","geometry":{"type":"Point","coordinates":[-69.0037286,18.4362341]},"properties":{"id":"UNI-OSM-NODE-3211862407","nombre":"Universidad  UFHEC","categoria":"Universidades","direccion":"","ciudad":"","provincia":"","telefono":"","website":"","osm_type":"node","osm_id":3211862407,"osm_url":"https://www.openstreetmap.org/node/3211862407","fuente":"OpenStreetMap","validada":false,"reconocida_mescyt":"pendiente"}},{"type":"Feature","geometry":{"type":"Point","coordinates":[-69.8549875,19.3909734]},"properties":{"id":"UNI-OSM-WAY-327262115","nombre":"Universidad Abierta Para Adultos (UAPA)","categoria":"Universidades","direccion":"Calle 1ra, Urb. Alfonso Alonso","ciudad":"Nagua","provincia":"","telefono":"809-584-7021","website":"https://www.uapa.edu.do/","osm_type":"way","osm_id":327262115,"osm_url":"https://www.openstreetmap.org/way/327262115","fuente":"OpenStreetMap","validada":false,"reconocida_mescyt":"pendiente"}},{"type":"Feature","geometry":{"type":"Point","coordinates":[-70.6723424,19.4263836]},"properties":{"id":"UNI-OSM-WAY-31875374","nombre":"Universidad Abierta Para Adultos UAPA","categoria":"Universidades","direccion":"","ciudad":"","provincia":"","telefono":"","website":"","osm_type":"way","osm_id":31875374,"osm_url":"https://www.openstreetmap.org/way/31875374","fuente":"OpenStreetMap","validada":false,"reconocida_mescyt":"pendiente"}},{"type":"Feature","geometry":{"type":"Point","coordinates":[-70.362958,18.872988]},"properties":{"id":"UNI-OSM-NODE-4671506491","nombre":"Universidad Adventista Dominicana","categoria":"Universidades","direccion":"Autopista Duarte","ciudad":"","provincia":"","telefono":"","website":"","osm_type":"node","osm_id":4671506491,"osm_url":"https://www.openstreetmap.org/node/4671506491","fuente":"OpenStreetMap","validada":false,"reconocida_mescyt":"pendiente"}},{"type":"Feature","geometry":{"type":"Point","coordinates":[-70.3559511,18.8672222]},"properties":{"id":"UNI-OSM-WAY-396807837","nombre":"Universidad Adventista Dominicana","categoria":"Universidades","direccion":"","ciudad":"","provincia":"","telefono":"","website":"","osm_type":"way","osm_id":396807837,"osm_url":"https://www.openstreetmap.org/way/396807837","fuente":"OpenStreetMap","validada":false,"reconocida_mescyt":"pendiente"}},{"type":"Feature","geometry":{"type":"Point","coordinates":[-69.948613,18.458847]},"properties":{"id":"UNI-OSM-NODE-13602710001","nombre":"Universidad Adventista Dominicana, UNAD. Recinto Santo Domingo","categoria":"Universidades","direccion":"Calle Profesor Luis F. Thomen 303","ciudad":"","provincia":"","telefono":"+18094723211","website":"https://www.unad.edu.do/","osm_type":"node","osm_id":13602710001,"osm_url":"https://www.openstreetmap.org/node/13602710001","fuente":"OpenStreetMap","validada":false,"reconocida_mescyt":"pendiente"}},{"type":"Feature","geometry":{"type":"Point","coordinates":[-70.63994,19.1267226]},"properties":{"id":"UNI-OSM-NODE-2365184790","nombre":"Universidad Agroforestal Fernando Arturo de Meriño UAFAM","categoria":"Universidades","direccion":"","ciudad":"","provincia":"","telefono":"","website":"https://uafam.edu.do/","osm_type":"node","osm_id":2365184790,"osm_url":"https://www.openstreetmap.org/node/2365184790","fuente":"OpenStreetMap","validada":false,"reconocida_mescyt":"pendiente"}},{"type":"Feature","geometry":{"type":"Point","coordinates":[-69.915284,18.4727829]},"properties":{"id":"UNI-OSM-NODE-14143349778","nombre":"Universidad APEC","categoria":"Universidades","direccion":"","ciudad":"","provincia":"","telefono":"","website":"","osm_type":"node","osm_id":14143349778,"osm_url":"https://www.openstreetmap.org/node/14143349778","fuente":"OpenStreetMap","validada":false,"reconocida_mescyt":"pendiente"}},{"type":"Feature","geometry":{"type":"Point","coordinates":[-69.9136843,18.4735391]},"properties":{"id":"UNI-OSM-WAY-153866620","nombre":"Universidad Apec","categoria":"Universidades","direccion":"Av. Maximo Gomez Esq. Mexico","ciudad":"","provincia":"","telefono":"","website":"","osm_type":"way","osm_id":153866620,"osm_url":"https://www.openstreetmap.org/way/153866620","fuente":"OpenStreetMap","validada":false,"reconocida_mescyt":"pendiente"}},{"type":"Feature","geometry":{"type":"Point","coordinates":[-69.9679378,18.4502797]},"properties":{"id":"UNI-OSM-WAY-408756185","nombre":"Universidad APEC","categoria":"Universidades","direccion":"27 de Febrero","ciudad":"","provincia":"","telefono":"","website":"","osm_type":"way","osm_id":408756185,"osm_url":"https://www.openstreetmap.org/way/408756185","fuente":"OpenStreetMap","validada":false,"reconocida_mescyt":"pendiente"}},{"type":"Feature","geometry":{"type":"Point","coordinates":[-70.7275903,19.4253839]},"properties":{"id":"UNI-OSM-NODE-355643400","nombre":"Universidad Autónoma De Santo Domingo","categoria":"Universidades","direccion":"","ciudad":"","provincia":"","telefono":"","website":"","osm_type":"node","osm_id":355643400,"osm_url":"https://www.openstreetmap.org/node/355643400","fuente":"OpenStreetMap","validada":false,"reconocida_mescyt":"pendiente"}},{"type":"Feature","geometry":{"type":"Point","coordinates":[-69.9172195,18.4612981]},"properties":{"id":"UNI-OSM-RELATION-13534684","nombre":"Universidad Autónoma de Santo Domingo","categoria":"Universidades","direccion":"","ciudad":"","provincia":"","telefono":"","website":"","osm_type":"relation","osm_id":13534684,"osm_url":"https://www.openstreetmap.org/relation/13534684","fuente":"OpenStreetMap","validada":false,"reconocida_mescyt":"pendiente"}},{"type":"Feature","geometry":{"type":"Point","coordinates":[-71.1032346,18.2178025]},"properties":{"id":"UNI-OSM-WAY-690571936","nombre":"Universidad Autónoma de Santo Domingo","categoria":"Universidades","direccion":"Avenida de Circunvalación Interna","ciudad":"Barahona","provincia":"","telefono":"","website":"","osm_type":"way","osm_id":690571936,"osm_url":"https://www.openstreetmap.org/way/690571936","fuente":"OpenStreetMap","validada":false,"reconocida_mescyt":"pendiente"}},{"type":"Feature","geometry":{"type":"Point","coordinates":[-69.855058,19.3543034]},"properties":{"id":"UNI-OSM-WAY-732209298","nombre":"Universidad Autónoma de Santo Domingo","categoria":"Universidades","direccion":"","ciudad":"","provincia":"","telefono":"","website":"","osm_type":"way","osm_id":732209298,"osm_url":"https://www.openstreetmap.org/way/732209298","fuente":"OpenStreetMap","validada":false,"reconocida_mescyt":"pendiente"}},{"type":"Feature","geometry":{"type":"Point","coordinates":[-68.9911838,18.4353502]},"properties":{"id":"UNI-OSM-NODE-13607514701","nombre":"Universidad Autónoma de Santo Domingo - Centro La Romana","categoria":"Universidades","direccion":"Avenida Francisco Alberto Caamaño Deñó","ciudad":"","provincia":"","telefono":"","website":"","osm_type":"node","osm_id":13607514701,"osm_url":"https://www.openstreetmap.org/node/13607514701","fuente":"OpenStreetMap","validada":false,"reconocida_mescyt":"pendiente"}},{"type":"Feature","geometry":{"type":"Point","coordinates":[-68.7161234,18.5919423]},"properties":{"id":"UNI-OSM-WAY-1339619380","nombre":"Universidad Autónoma de Santo Domingo - Higüey","categoria":"Universidades","direccion":"","ciudad":"","provincia":"","telefono":"","website":"","osm_type":"way","osm_id":1339619380,"osm_url":"https://www.openstreetmap.org/way/1339619380","fuente":"OpenStreetMap","validada":false,"reconocida_mescyt":"pendiente"}},{"type":"Feature","geometry":{"type":"Point","coordinates":[-71.1038024,19.5649131]},"properties":{"id":"UNI-OSM-WAY-428346011","nombre":"Universidad Autónoma de Santo Domingo - Mao","categoria":"Universidades","direccion":"","ciudad":"","provincia":"","telefono":"","website":"","osm_type":"way","osm_id":428346011,"osm_url":"https://www.openstreetmap.org/way/428346011","fuente":"OpenStreetMap","validada":false,"reconocida_mescyt":"pendiente"}},{"type":"Feature","geometry":{"type":"Point","coordinates":[-70.5286056,19.3849587]},"properties":{"id":"UNI-OSM-WAY-1334869150","nombre":"Universidad Autónoma de Santo Domingo - Moca","categoria":"Universidades","direccion":"Avenida Presidente Antonio Guzmán Fernández","ciudad":"Moca","provincia":"","telefono":"","website":"","osm_type":"way","osm_id":1334869150,"osm_url":"https://www.openstreetmap.org/way/1334869150","fuente":"OpenStreetMap","validada":false,"reconocida_mescyt":"pendiente"}},{"type":"Feature","geometry":{"type":"Point","coordinates":[-70.7236599,19.8052285]},"properties":{"id":"UNI-OSM-WAY-853491693","nombre":"Universidad Autónoma de Santo Domingo - Puerto Plata","categoria":"Universidades","direccion":"Navarrete - Pto. Plata","ciudad":"Puerto Plata","provincia":"","telefono":"","website":"","osm_type":"way","osm_id":853491693,"osm_url":"https://www.openstreetmap.org/way/853491693","fuente":"OpenStreetMap","validada":false,"reconocida_mescyt":"pendiente"}},{"type":"Feature","geometry":{"type":"Point","coordinates":[-70.2434392,19.2871219]},"properties":{"id":"UNI-OSM-WAY-688647393","nombre":"Universidad Autónoma de Santo Domingo - San Francisco de Macorís","categoria":"Universidades","direccion":"Av. Manolo Tavárez Justo","ciudad":"San Francisco de Macorís","provincia":"","telefono":"809-588-1401","website":"","osm_type":"way","osm_id":688647393,"osm_url":"https://www.openstreetmap.org/way/688647393","fuente":"OpenStreetMap","validada":false,"reconocida_mescyt":"pendiente"}},{"type":"Feature","geometry":{"type":"Point","coordinates":[-70.5184086,19.231941]},"properties":{"id":"UNI-OSM-NODE-1673956917","nombre":"Universidad Catolica Tecnologica del Cibao","categoria":"Universidades","direccion":"","ciudad":"","provincia":"","telefono":"","website":"","osm_type":"node","osm_id":1673956917,"osm_url":"https://www.openstreetmap.org/node/1673956917","fuente":"OpenStreetMap","validada":false,"reconocida_mescyt":"pendiente"}},{"type":"Feature","geometry":{"type":"Point","coordinates":[-70.2663299,19.3401108]},"properties":{"id":"UNI-OSM-WAY-202764840","nombre":"Universidad Católica Nordestana","categoria":"Universidades","direccion":"","ciudad":"","provincia":"","telefono":"","website":"","osm_type":"way","osm_id":202764840,"osm_url":"https://www.openstreetmap.org/way/202764840","fuente":"OpenStreetMap","validada":false,"reconocida_mescyt":"pendiente"}},{"type":"Feature","geometry":{"type":"Point","coordinates":[-69.9232593,18.4627962]},"properties":{"id":"UNI-OSM-WAY-338342953","nombre":"Universidad Católica Santo Domingo (UCSD)","categoria":"Universidades","direccion":"Avenida Bolivar","ciudad":"Santo Domingo","provincia":"","telefono":"","website":"","osm_type":"way","osm_id":338342953,"osm_url":"https://www.openstreetmap.org/way/338342953","fuente":"OpenStreetMap","validada":false,"reconocida_mescyt":"pendiente"}},{"type":"Feature","geometry":{"type":"Point","coordinates":[-70.530545,19.2216321]},"properties":{"id":"UNI-OSM-WAY-414221508","nombre":"Universidad Católica Tecnologica de Cibao","categoria":"Universidades","direccion":"Avenida Monseñor Panal","ciudad":"La Vega","provincia":"","telefono":"","website":"","osm_type":"way","osm_id":414221508,"osm_url":"https://www.openstreetmap.org/way/414221508","fuente":"OpenStreetMap","validada":false,"reconocida_mescyt":"pendiente"}},{"type":"Feature","geometry":{"type":"Point","coordinates":[-71.0930284,18.2178691]},"properties":{"id":"UNI-OSM-WAY-690571924","nombre":"Universidad Católica Tecnológica de Barahona","categoria":"Universidades","direccion":"","ciudad":"","provincia":"","telefono":"","website":"","osm_type":"way","osm_id":690571924,"osm_url":"https://www.openstreetmap.org/way/690571924","fuente":"OpenStreetMap","validada":false,"reconocida_mescyt":"pendiente"}},{"type":"Feature","geometry":{"type":"Point","coordinates":[-69.2948457,18.4590759]},"properties":{"id":"UNI-OSM-WAY-157770454","nombre":"Universidad Central del Este","categoria":"Universidades","direccion":"","ciudad":"","provincia":"","telefono":"","website":"","osm_type":"way","osm_id":157770454,"osm_url":"https://www.openstreetmap.org/way/157770454","fuente":"OpenStreetMap","validada":false,"reconocida_mescyt":"pendiente"}},{"type":"Feature","geometry":{"type":"Point","coordinates":[-69.0051418,18.4237242]},"properties":{"id":"UNI-OSM-WAY-1448263325","nombre":"Universidad de La Romana","categoria":"Universidades","direccion":"","ciudad":"","provincia":"","telefono":"","website":"","osm_type":"way","osm_id":1448263325,"osm_url":"https://www.openstreetmap.org/way/1448263325","fuente":"OpenStreetMap","validada":false,"reconocida_mescyt":"pendiente"}},{"type":"Feature","geometry":{"type":"Point","coordinates":[-69.9560695,18.450396]},"properties":{"id":"UNI-OSM-WAY-177692085","nombre":"Universidad de la Tercera Edad UTE","categoria":"Universidades","direccion":"","ciudad":"","provincia":"","telefono":"","website":"","osm_type":"way","osm_id":177692085,"osm_url":"https://www.openstreetmap.org/way/177692085","fuente":"OpenStreetMap","validada":false,"reconocida_mescyt":"pendiente"}},{"type":"Feature","geometry":{"type":"Point","coordinates":[-69.9496841,18.4336955]},"properties":{"id":"UNI-OSM-NODE-1679229637","nombre":"Universidad del Caribe","categoria":"Universidades","direccion":"","ciudad":"","provincia":"","telefono":"","website":"","osm_type":"node","osm_id":1679229637,"osm_url":"https://www.openstreetmap.org/node/1679229637","fuente":"OpenStreetMap","validada":false,"reconocida_mescyt":"pendiente"}},{"type":"Feature","geometry":{"type":"Point","coordinates":[-69.9510361,18.4337821]},"properties":{"id":"UNI-OSM-WAY-410061868","nombre":"Universidad del Caribe","categoria":"Universidades","direccion":"Autopista 30 de Mayo","ciudad":"","provincia":"","telefono":"","website":"","osm_type":"way","osm_id":410061868,"osm_url":"https://www.openstreetmap.org/way/410061868","fuente":"OpenStreetMap","validada":false,"reconocida_mescyt":"pendiente"}},{"type":"Feature","geometry":{"type":"Point","coordinates":[-69.856208,18.5079844]},"properties":{"id":"UNI-OSM-NODE-9998564269","nombre":"Universidad Dominicana","categoria":"Universidades","direccion":"","ciudad":"","provincia":"","telefono":"","website":"","osm_type":"node","osm_id":9998564269,"osm_url":"https://www.openstreetmap.org/node/9998564269","fuente":"OpenStreetMap","validada":false,"reconocida_mescyt":"pendiente"}},{"type":"Feature","geometry":{"type":"Point","coordinates":[-69.9242172,18.4560071]},"properties":{"id":"UNI-OSM-WAY-1012352811","nombre":"Universidad Dominico Americana","categoria":"Universidades","direccion":"","ciudad":"","provincia":"","telefono":"","website":"","osm_type":"way","osm_id":1012352811,"osm_url":"https://www.openstreetmap.org/way/1012352811","fuente":"OpenStreetMap","validada":false,"reconocida_mescyt":"pendiente"}},{"type":"Feature","geometry":{"type":"Point","coordinates":[-70.0990063,18.4217856]},"properties":{"id":"UNI-OSM-WAY-1169199598","nombre":"Universidad Eugenio María de Hostos","categoria":"Universidades","direccion":"","ciudad":"","provincia":"","telefono":"","website":"","osm_type":"way","osm_id":1169199598,"osm_url":"https://www.openstreetmap.org/way/1169199598","fuente":"OpenStreetMap","validada":false,"reconocida_mescyt":"pendiente"}},{"type":"Feature","geometry":{"type":"Point","coordinates":[-69.9694085,18.4469867]},"properties":{"id":"UNI-OSM-NODE-6432969185","nombre":"Universidad Experimental Feliz Adam","categoria":"Universidades","direccion":"","ciudad":"","provincia":"","telefono":"","website":"","osm_type":"node","osm_id":6432969185,"osm_url":"https://www.openstreetmap.org/node/6432969185","fuente":"OpenStreetMap","validada":false,"reconocida_mescyt":"pendiente"}},{"type":"Feature","geometry":{"type":"Point","coordinates":[-69.9121535,18.4694989]},"properties":{"id":"UNI-OSM-WAY-112410358","nombre":"Universidad Federico Henriquez y Carvajal","categoria":"Universidades","direccion":"Avenida Máximo Gómez","ciudad":"","provincia":"","telefono":"+1 809-537-6000","website":"https://ufhec.edu.do/","osm_type":"way","osm_id":112410358,"osm_url":"https://www.openstreetmap.org/way/112410358","fuente":"OpenStreetMap","validada":false,"reconocida_mescyt":"pendiente"}},{"type":"Feature","geometry":{"type":"Point","coordinates":[-69.9089509,18.4748906]},"properties":{"id":"UNI-OSM-WAY-344021413","nombre":"Universidad Iberoamericana","categoria":"Universidades","direccion":"","ciudad":"","provincia":"","telefono":"","website":"","osm_type":"way","osm_id":344021413,"osm_url":"https://www.openstreetmap.org/way/344021413","fuente":"OpenStreetMap","validada":false,"reconocida_mescyt":"pendiente"}},{"type":"Feature","geometry":{"type":"Point","coordinates":[-69.9509785,18.4675693]},"properties":{"id":"UNI-OSM-NODE-4136172456","nombre":"Universidad Ince","categoria":"Universidades","direccion":"","ciudad":"","provincia":"","telefono":"","website":"","osm_type":"node","osm_id":4136172456,"osm_url":"https://www.openstreetmap.org/node/4136172456","fuente":"OpenStreetMap","validada":false,"reconocida_mescyt":"pendiente"}},{"type":"Feature","geometry":{"type":"Point","coordinates":[-70.7505132,19.4412167]},"properties":{"id":"UNI-OSM-WAY-369571595","nombre":"Universidad Isa","categoria":"Universidades","direccion":"","ciudad":"","provincia":"","telefono":"","website":"","osm_type":"way","osm_id":369571595,"osm_url":"https://www.openstreetmap.org/way/369571595","fuente":"OpenStreetMap","validada":false,"reconocida_mescyt":"pendiente"}},{"type":"Feature","geometry":{"type":"Point","coordinates":[-69.7702853,18.5315781]},"properties":{"id":"UNI-OSM-WAY-250771422","nombre":"Universidad Militar Nacional de las Fuerzas Armadas Batalla de las Carreras","categoria":"Universidades","direccion":"","ciudad":"","provincia":"","telefono":"","website":"","osm_type":"way","osm_id":250771422,"osm_url":"https://www.openstreetmap.org/way/250771422","fuente":"OpenStreetMap","validada":false,"reconocida_mescyt":"pendiente"}},{"type":"Feature","geometry":{"type":"Point","coordinates":[-70.7041422,19.4796256]},"properties":{"id":"UNI-OSM-WAY-408745888","nombre":"Universidad Nacional Evangélica","categoria":"Universidades","direccion":"","ciudad":"","provincia":"","telefono":"","website":"","osm_type":"way","osm_id":408745888,"osm_url":"https://www.openstreetmap.org/way/408745888","fuente":"OpenStreetMap","validada":false,"reconocida_mescyt":"pendiente"}},{"type":"Feature","geometry":{"type":"Point","coordinates":[-70.5274516,19.2211206]},"properties":{"id":"UNI-OSM-WAY-413973311","nombre":"Universidad Nacional Pedro Henriquez Ureña","categoria":"Universidades","direccion":"Avenida Garcia Godoy","ciudad":"La Vega","provincia":"","telefono":"","website":"","osm_type":"way","osm_id":413973311,"osm_url":"https://www.openstreetmap.org/way/413973311","fuente":"OpenStreetMap","validada":false,"reconocida_mescyt":"pendiente"}},{"type":"Feature","geometry":{"type":"Point","coordinates":[-69.9488771,18.485963]},"properties":{"id":"UNI-OSM-WAY-250877911","nombre":"Universidad Nacional Pedro Heriquez Urena - UNPHU","categoria":"Universidades","direccion":"Av. J.F. Kennedy, km 7 1/2. Santo Domingo","ciudad":"","provincia":"","telefono":"8095626601","website":"https://www.unphu.edu.do/","osm_type":"way","osm_id":250877911,"osm_url":"https://www.openstreetmap.org/way/250877911","fuente":"OpenStreetMap","validada":false,"reconocida_mescyt":"pendiente"}},{"type":"Feature","geometry":{"type":"Point","coordinates":[-69.8972595,18.4702186]},"properties":{"id":"UNI-OSM-WAY-407742569","nombre":"Universidad Nacional Tecnológica","categoria":"Universidades","direccion":"","ciudad":"","provincia":"","telefono":"","website":"","osm_type":"way","osm_id":407742569,"osm_url":"https://www.openstreetmap.org/way/407742569","fuente":"OpenStreetMap","validada":false,"reconocida_mescyt":"pendiente"}},{"type":"Feature","geometry":{"type":"Point","coordinates":[-70.5301228,19.3878347]},"properties":{"id":"UNI-OSM-NODE-2313572864","nombre":"Universidad O & M","categoria":"Universidades","direccion":"","ciudad":"","provincia":"","telefono":"","website":"","osm_type":"node","osm_id":2313572864,"osm_url":"https://www.openstreetmap.org/node/2313572864","fuente":"OpenStreetMap","validada":false,"reconocida_mescyt":"pendiente"}},{"type":"Feature","geometry":{"type":"Point","coordinates":[-70.6900307,19.4679934]},"properties":{"id":"UNI-OSM-WAY-615650574","nombre":"Universidad O&M","categoria":"Universidades","direccion":"","ciudad":"","provincia":"","telefono":"","website":"","osm_type":"way","osm_id":615650574,"osm_url":"https://www.openstreetmap.org/way/615650574","fuente":"OpenStreetMap","validada":false,"reconocida_mescyt":"pendiente"}},{"type":"Feature","geometry":{"type":"Point","coordinates":[-69.9293324,18.4495642]},"properties":{"id":"UNI-OSM-WAY-683025760","nombre":"Universidad O&M","categoria":"Universidades","direccion":"Avenida Independencia","ciudad":"Distrito Nacional","provincia":"","telefono":"","website":"https://udoym.edu.do/","osm_type":"way","osm_id":683025760,"osm_url":"https://www.openstreetmap.org/way/683025760","fuente":"OpenStreetMap","validada":false,"reconocida_mescyt":"pendiente"}},{"type":"Feature","geometry":{"type":"Point","coordinates":[-69.9942453,18.4697003]},"properties":{"id":"UNI-OSM-WAY-213274051","nombre":"Universidad Odontologica Dominicana","categoria":"Universidades","direccion":"Prolong Avenida 27 De Febrero","ciudad":"Santo Domingo Oeste","provincia":"","telefono":"","website":"","osm_type":"way","osm_id":213274051,"osm_url":"https://www.openstreetmap.org/way/213274051","fuente":"OpenStreetMap","validada":false,"reconocida_mescyt":"pendiente"}},{"type":"Feature","geometry":{"type":"Point","coordinates":[-69.9449884,18.4440379]},"properties":{"id":"UNI-OSM-WAY-1011025605","nombre":"Universidad Psicología Industrial Dominicana","categoria":"Universidades","direccion":"Calle 1era,  rocamar","ciudad":"Santo Domingo","provincia":"","telefono":"+1809 533 7141; +809 508 6851","website":"","osm_type":"way","osm_id":1011025605,"osm_url":"https://www.openstreetmap.org/way/1011025605","fuente":"OpenStreetMap","validada":false,"reconocida_mescyt":"pendiente"}},{"type":"Feature","geometry":{"type":"Point","coordinates":[-70.1613469,19.0581113]},"properties":{"id":"UNI-OSM-WAY-914210341","nombre":"Universidad Tecnologica del Cibao Oriental-UTECO","categoria":"Universidades","direccion":"Avenida Universitaria 100","ciudad":"Cotui","provincia":"","telefono":"","website":"https://uteco.edu.do","osm_type":"way","osm_id":914210341,"osm_url":"https://www.openstreetmap.org/way/914210341","fuente":"OpenStreetMap","validada":false,"reconocida_mescyt":"pendiente"}},{"type":"Feature","geometry":{"type":"Point","coordinates":[-70.2800103,19.6302772]},"properties":{"id":"UNI-OSM-WAY-286451770","nombre":"Universidad Tecnológica de Santiago","categoria":"Universidades","direccion":"","ciudad":"Gaspar Hernandez","provincia":"","telefono":"","website":"","osm_type":"way","osm_id":286451770,"osm_url":"https://www.openstreetmap.org/way/286451770","fuente":"OpenStreetMap","validada":false,"reconocida_mescyt":"pendiente"}},{"type":"Feature","geometry":{"type":"Point","coordinates":[-70.6931993,19.4348263]},"properties":{"id":"UNI-OSM-WAY-31876841","nombre":"Universidad Tecnológica de Santiago","categoria":"Universidades","direccion":"Avenida Salvador Estrella Sadhala","ciudad":"Santiago de los Caballeros","provincia":"","telefono":"","website":"","osm_type":"way","osm_id":31876841,"osm_url":"https://www.openstreetmap.org/way/31876841","fuente":"OpenStreetMap","validada":false,"reconocida_mescyt":"pendiente"}},{"type":"Feature","geometry":{"type":"Point","coordinates":[-69.9772857,18.4534526]},"properties":{"id":"UNI-OSM-WAY-376021807","nombre":"Universidad Tecnológica de Santiago","categoria":"Universidades","direccion":"Avenida Isabel Aguiar","ciudad":"Santo Domingo","provincia":"","telefono":"","website":"","osm_type":"way","osm_id":376021807,"osm_url":"https://www.openstreetmap.org/way/376021807","fuente":"OpenStreetMap","validada":false,"reconocida_mescyt":"pendiente"}},{"type":"Feature","geometry":{"type":"Point","coordinates":[-69.8773768,18.4877786]},"properties":{"id":"UNI-OSM-WAY-453811277","nombre":"Universidad Tecnológica de Santiago","categoria":"Universidades","direccion":"","ciudad":"","provincia":"","telefono":"","website":"","osm_type":"way","osm_id":453811277,"osm_url":"https://www.openstreetmap.org/way/453811277","fuente":"OpenStreetMap","validada":false,"reconocida_mescyt":"pendiente"}},{"type":"Feature","geometry":{"type":"Point","coordinates":[-69.8771754,18.4877521]},"properties":{"id":"UNI-OSM-NODE-4543643389","nombre":"Universidad Tecnológica de Santiago (UTESA)","categoria":"Universidades","direccion":"","ciudad":"","provincia":"","telefono":"","website":"","osm_type":"node","osm_id":4543643389,"osm_url":"https://www.openstreetmap.org/node/4543643389","fuente":"OpenStreetMap","validada":false,"reconocida_mescyt":"pendiente"}},{"type":"Feature","geometry":{"type":"Point","coordinates":[-70.5235925,19.4001797]},"properties":{"id":"UNI-OSM-WAY-349869068","nombre":"Universidad Tecnológica de Santiago (UTESA) - Recinto Moca","categoria":"Universidades","direccion":"Avenida Juan Pablo Duarte","ciudad":"Moca","provincia":"","telefono":"","website":"","osm_type":"way","osm_id":349869068,"osm_url":"https://www.openstreetmap.org/way/349869068","fuente":"OpenStreetMap","validada":false,"reconocida_mescyt":"pendiente"}},{"type":"Feature","geometry":{"type":"Point","coordinates":[-70.7063928,19.7906728]},"properties":{"id":"UNI-OSM-WAY-853491753","nombre":"Universidad Tecnológica de Santiago - Recinto de Puerto Plata","categoria":"Universidades","direccion":"Avenida Manolo Aurelio Tavárez Justo","ciudad":"Puerto Plata","provincia":"","telefono":"","website":"","osm_type":"way","osm_id":853491753,"osm_url":"https://www.openstreetmap.org/way/853491753","fuente":"OpenStreetMap","validada":false,"reconocida_mescyt":"pendiente"}},{"type":"Feature","geometry":{"type":"Point","coordinates":[-69.8947146,18.4751849]},"properties":{"id":"UNI-OSM-WAY-406840018","nombre":"Universidad Tecnológica de Santiago Extensión San Carlos","categoria":"Universidades","direccion":"Calle 16 de Agosto 4","ciudad":"","provincia":"","telefono":"","website":"","osm_type":"way","osm_id":406840018,"osm_url":"https://www.openstreetmap.org/way/406840018","fuente":"OpenStreetMap","validada":false,"reconocida_mescyt":"pendiente"}},{"type":"Feature","geometry":{"type":"Point","coordinates":[-69.0041499,18.4366135]},"properties":{"id":"UNI-OSM-WAY-500980193","nombre":"Universidad UFHEC – Campus La Romana","categoria":"Universidades","direccion":"Av. Gregorio Luperón 149","ciudad":"","provincia":"","telefono":"+18094476345","website":"","osm_type":"way","osm_id":500980193,"osm_url":"https://www.openstreetmap.org/way/500980193","fuente":"OpenStreetMap","validada":false,"reconocida_mescyt":"pendiente"}},{"type":"Feature","geometry":{"type":"Point","coordinates":[-69.9111178,18.4660472]},"properties":{"id":"UNI-OSM-WAY-174466996","nombre":"Universidad UTESA, Recinto Santo Domingo","categoria":"Universidades","direccion":"","ciudad":"","provincia":"","telefono":"","website":"","osm_type":"way","osm_id":174466996,"osm_url":"https://www.openstreetmap.org/way/174466996","fuente":"OpenStreetMap","validada":false,"reconocida_mescyt":"pendiente"}},{"type":"Feature","geometry":{"type":"Point","coordinates":[-69.8520219,19.3722908]},"properties":{"id":"UNI-OSM-RELATION-18672472","nombre":"Universidades sin nombre","categoria":"Universidades","direccion":"","ciudad":"","provincia":"","telefono":"","website":"","osm_type":"relation","osm_id":18672472,"osm_url":"https://www.openstreetmap.org/relation/18672472","fuente":"OpenStreetMap","validada":false,"reconocida_mescyt":"pendiente"}},{"type":"Feature","geometry":{"type":"Point","coordinates":[-69.8520219,19.3722908]},"properties":{"id":"UNI-OSM-WAY-1358251782","nombre":"Universidades sin nombre","categoria":"Universidades","direccion":"","ciudad":"","provincia":"","telefono":"","website":"","osm_type":"way","osm_id":1358251782,"osm_url":"https://www.openstreetmap.org/way/1358251782","fuente":"OpenStreetMap","validada":false,"reconocida_mescyt":"pendiente"}},{"type":"Feature","geometry":{"type":"Point","coordinates":[-70.2563527,19.2937208]},"properties":{"id":"UNI-OSM-WAY-698143384","nombre":"Universidades sin nombre","categoria":"Universidades","direccion":"","ciudad":"","provincia":"","telefono":"","website":"","osm_type":"way","osm_id":698143384,"osm_url":"https://www.openstreetmap.org/way/698143384","fuente":"OpenStreetMap","validada":false,"reconocida_mescyt":"pendiente"}},{"type":"Feature","geometry":{"type":"Point","coordinates":[-68.7185753,18.615607]},"properties":{"id":"UNI-OSM-WAY-864492026","nombre":"Universidades sin nombre","categoria":"Universidades","direccion":"","ciudad":"","provincia":"","telefono":"","website":"","osm_type":"way","osm_id":864492026,"osm_url":"https://www.openstreetmap.org/way/864492026","fuente":"OpenStreetMap","validada":false,"reconocida_mescyt":"pendiente"}},{"type":"Feature","geometry":{"type":"Point","coordinates":[-70.7300019,18.4564754]},"properties":{"id":"UNI-OSM-WAY-302975943","nombre":"UTE Sur","categoria":"Universidades","direccion":"","ciudad":"","provincia":"","telefono":"","website":"","osm_type":"way","osm_id":302975943,"osm_url":"https://www.openstreetmap.org/way/302975943","fuente":"OpenStreetMap","validada":false,"reconocida_mescyt":"pendiente"}},{"type":"Feature","geometry":{"type":"Point","coordinates":[-71.7333879,18.0313686]},"properties":{"id":"UNI-OSM-WAY-1110916478","nombre":"Área Universidad UCATEBA Extensión Pedernales","categoria":"Universidades","direccion":"","ciudad":"","provincia":"","telefono":"","website":"","osm_type":"way","osm_id":1110916478,"osm_url":"https://www.openstreetmap.org/way/1110916478","fuente":"OpenStreetMap","validada":false,"reconocida_mescyt":"pendiente"}}]}